{
"type": "FeatureCollection",
"name": "foodbanks_london",
"crs": { "type": "name", "properties": { "name": "urn:ogc:def:crs:OGC:1.3:CRS84" } },
"features": [
{ "type": "Feature", "properties": { "name": "Bromley Temple, Salvation Army", "slug": "bromley-temple", "address": "Ethelbert Road \nBromley \r\nBR1 1HU", "url": "https://www.givefood.org.uk/needs/at/salvation-army/bromley-temple/", "network": "Independent", "email": "bromley.temple@salvationarmy.org.uk", "telephone": "02084644743", "foodbank": "Salvation Army", "foodbank_slug": "salvation-army", "foodbank_url": "https://www.givefood.org.uk/needs/at/salvation-army/", "parliamentary_constituency": "Bromley and Biggin Hill" }, "geometry": { "type": "Point", "coordinates": [ 0.014821, 51.402095 ] } },
{ "type": "Feature", "properties": { "name": "Living Hope, Dagenham Foodbank", "slug": "living-hope", "address": "The Old Dagenham Methodist Church\r\nRainham Road South\r\nDagenham East\r\nRM10 8YB", "url": "https://www.givefood.org.uk/needs/at/dagenham/living-hope/", "network": "Trussell", "email": "info@dagenham.foodbank.org.uk", "telephone": "02085950122", "foodbank": "Dagenham", "foodbank_slug": "dagenham", "foodbank_url": "https://www.givefood.org.uk/needs/at/dagenham/", "parliamentary_constituency": "Dagenham and Rainham" }, "geometry": { "type": "Point", "coordinates": [ 0.1656691, 51.5399597 ] } },
{ "type": "Feature", "properties": { "name": "CR8, Purley Foodbank", "slug": "cr8", "address": "", "url": "https://www.givefood.org.uk/needs/at/purley/cr8/", "network": "IFAN", "email": "PurleyFoodHub@gmail.com", "telephone": "07546635295", "foodbank": "Purley", "foodbank_slug": "purley", "foodbank_url": "https://www.givefood.org.uk/needs/at/purley/", "parliamentary_constituency": "Croydon South" }, "geometry": { "type": "Point", "coordinates": [ -0.1108331, 51.331236399999987 ] } },
{ "type": "Feature", "properties": { "name": "CR0 4, Purley Foodbank", "slug": "cr0-4", "address": "", "url": "https://www.givefood.org.uk/needs/at/purley/cr0-4/", "network": "IFAN", "email": "PurleyFoodHub@gmail.com", "telephone": "07546635295", "foodbank": "Purley", "foodbank_slug": "purley", "foodbank_url": "https://www.givefood.org.uk/needs/at/purley/", "parliamentary_constituency": "Croydon West" }, "geometry": { "type": "Point", "coordinates": [ -0.1163804, 51.3644222 ] } },
{ "type": "Feature", "properties": { "name": "Uxbridge, Salvation Army", "slug": "uxbridge", "address": "16b Cowley Road \nUxbridge \r\nUB8 2LT", "url": "https://www.givefood.org.uk/needs/at/salvation-army/uxbridge/", "network": "Independent", "email": "uxbridge@salvationarmy.org.uk", "telephone": "01895234088", "foodbank": "Salvation Army", "foodbank_slug": "salvation-army", "foodbank_url": "https://www.givefood.org.uk/needs/at/salvation-army/", "parliamentary_constituency": "Uxbridge and South Ruislip" }, "geometry": { "type": "Point", "coordinates": [ -0.48128, 51.5431 ] } },
{ "type": "Feature", "properties": { "name": "Hayes, Salvation Army", "slug": "hayes", "address": "71 Coldharbour Lane \nMiddlesex \r\nUB3 3EE", "url": "https://www.givefood.org.uk/needs/at/salvation-army/hayes/", "network": "Independent", "email": "Hayes@salvationarmy.org.uk", "telephone": "02085737342", "foodbank": "Salvation Army", "foodbank_slug": "salvation-army", "foodbank_url": "https://www.givefood.org.uk/needs/at/salvation-army/", "parliamentary_constituency": "Hayes and Harlington" }, "geometry": { "type": "Point", "coordinates": [ -0.416116, 51.508753 ] } },
{ "type": "Feature", "properties": { "name": "Notting Hill, Salvation Army", "slug": "notting-hill", "address": "205 Portobello Road \r\nNotting Hill\r\nW11 1LU", "url": "https://www.givefood.org.uk/needs/at/salvation-army/notting-hill/", "network": "Independent", "email": "notting.hill@salvationarmy.org.uk", "telephone": "02077275178", "foodbank": "Salvation Army", "foodbank_slug": "salvation-army", "foodbank_url": "https://www.givefood.org.uk/needs/at/salvation-army/", "parliamentary_constituency": "Kensington and Bayswater" }, "geometry": { "type": "Point", "coordinates": [ -0.205549, 51.516312 ] } },
{ "type": "Feature", "properties": { "name": "CR2, Purley Foodbank", "slug": "cr2", "address": "", "url": "https://www.givefood.org.uk/needs/at/purley/cr2/", "network": "IFAN", "email": "PurleyFoodHub@gmail.com", "telephone": "07546635295", "foodbank": "Purley", "foodbank_slug": "purley", "foodbank_url": "https://www.givefood.org.uk/needs/at/purley/", "parliamentary_constituency": "Croydon South" }, "geometry": { "type": "Point", "coordinates": [ -0.0758339, 51.3417486 ] } },
{ "type": "Feature", "properties": { "name": "East Greenwich, Greenwich Foodbank", "slug": "east-greenwich", "address": "Christ Church\r\nForum @ Greenwich\r\nTrafalgar Road\r\nGreenwich\r\nLondon\r\nSE10 9EQ", "url": "https://www.givefood.org.uk/needs/at/greenwich/east-greenwich/", "network": "Trussell", "email": "info@greenwich.foodbank.org.uk", "telephone": null, "foodbank": "Greenwich", "foodbank_slug": "greenwich", "foodbank_url": "https://www.givefood.org.uk/needs/at/greenwich/", "parliamentary_constituency": "Greenwich and Woolwich" }, "geometry": { "type": "Point", "coordinates": [ 0.0049131, 51.4853144 ] } },
{ "type": "Feature", "properties": { "name": "Geffery's Hall Community Centre, CEYP Foodbank", "slug": "gefferys-hall-community-centre", "address": "27 Nunnington Close\r\nMottingham\r\nSE9 4TA", "url": "https://www.givefood.org.uk/needs/at/ceyp/gefferys-hall-community-centre/", "network": "IFAN", "email": "info@ceyp.org", "telephone": "02088596644", "foodbank": "CEYP", "foodbank_slug": "ceyp", "foodbank_url": "https://www.givefood.org.uk/needs/at/ceyp/", "parliamentary_constituency": "Eltham and Chislehurst" }, "geometry": { "type": "Point", "coordinates": [ 0.0465396, 51.431450299999987 ] } },
{ "type": "Feature", "properties": { "name": "Hayes - Life Oasis, Hillingdon Foodbank", "slug": "hayes-life-oasis", "address": "Life Oasis Centre\r\n59 Carfax Road\r\nHayes\r\nUB3 4RD", "url": "https://www.givefood.org.uk/needs/at/hillingdon/hayes-life-oasis/", "network": "Trussell", "email": "hillingdonfoodbank@kingsborough.org.uk", "telephone": "01895252224", "foodbank": "Hillingdon", "foodbank_slug": "hillingdon", "foodbank_url": "https://www.givefood.org.uk/needs/at/hillingdon/", "parliamentary_constituency": "Hayes and Harlington" }, "geometry": { "type": "Point", "coordinates": [ -0.417158, 51.494216 ] } },
{ "type": "Feature", "properties": { "name": "St John's Church, Blackheath, Greenwich Foodbank", "slug": "st-johns-church-blackheath", "address": "Stratheden Road\nBlackheath\nLondon\r\nSE3 7TH", "url": "https://www.givefood.org.uk/needs/at/greenwich/st-johns-church-blackheath/", "network": "Trussell", "email": "info@greenwich.foodbank.org.uk", "telephone": "02083050520", "foodbank": "Greenwich", "foodbank_slug": "greenwich", "foodbank_url": "https://www.givefood.org.uk/needs/at/greenwich/", "parliamentary_constituency": "Greenwich and Woolwich" }, "geometry": { "type": "Point", "coordinates": [ 0.01589, 51.4737208 ] } },
{ "type": "Feature", "properties": { "name": "Northwood, Hillingdon Foodbank", "slug": "northwood", "address": "Emmanuel Church\r\nHigh Street\r\nNorthwood\r\nHA6 1AS", "url": "https://www.givefood.org.uk/needs/at/hillingdon/northwood/", "network": "Trussell", "email": "hillingdonfoodbank@kingsborough.org.uk", "telephone": "01895252224", "foodbank": "Hillingdon", "foodbank_slug": "hillingdon", "foodbank_url": "https://www.givefood.org.uk/needs/at/hillingdon/", "parliamentary_constituency": "Ruislip, Northwood and Pinner" }, "geometry": { "type": "Point", "coordinates": [ -0.4149273, 51.6086225 ] } },
{ "type": "Feature", "properties": { "name": "Bruce Grove, 3food4u Foodbank", "slug": "bruce-grove", "address": "454A High Road Bruce Grove\r\nLondon\r\nN17 9JD", "url": "https://www.givefood.org.uk/needs/at/3food4u/bruce-grove/", "network": "IFAN", "email": "info.3food4u@gmail.com", "telephone": "01992842642", "foodbank": "3food4u", "foodbank_slug": "3food4u", "foodbank_url": "https://www.givefood.org.uk/needs/at/3food4u/", "parliamentary_constituency": "Tottenham" }, "geometry": { "type": "Point", "coordinates": [ -0.0697955, 51.5923695 ] } },
{ "type": "Feature", "properties": { "name": "Hampton, Richmond Foodbank", "slug": "hampton", "address": "YMCA White House\r\n45 The Avenue\r\nHampton\r\nTW12 3RN", "url": "https://www.givefood.org.uk/needs/at/richmond/hampton/", "network": "Trussell", "email": "foodbank@vineyardcommunity.org", "telephone": "07516935655", "foodbank": "Richmond", "foodbank_slug": "richmond", "foodbank_url": "https://www.givefood.org.uk/needs/at/richmond/", "parliamentary_constituency": "Twickenham" }, "geometry": { "type": "Point", "coordinates": [ -0.3769623, 51.4235359 ] } },
{ "type": "Feature", "properties": { "name": "Grange Hill Methodist, Redbridge Foodbank", "slug": "grange-hill-methodist", "address": "Burrow Road\r\nChigwell\r\nEssex\r\nIG7 4HQ", "url": "https://www.givefood.org.uk/needs/at/redbridge/grange-hill-methodist/", "network": "Trussell", "email": "info@redbridgefoodbank.org", "telephone": "02085180056", "foodbank": "Redbridge", "foodbank_slug": "redbridge", "foodbank_url": "https://www.givefood.org.uk/needs/at/redbridge/", "parliamentary_constituency": "Ilford North" }, "geometry": { "type": "Point", "coordinates": [ 0.104359, 51.6109278 ] } },
{ "type": "Feature", "properties": { "name": "Central Bromley, Bromley Borough Foodbank", "slug": "central-bromley", "address": "United Reform Church\r\nWidmore Road\r\nBromley\r\nBR1 1RY", "url": "https://www.givefood.org.uk/needs/at/bromley-borough/central-bromley/", "network": "Trussell", "email": "info@bromleyborough.foodbank.org.uk", "telephone": "08009202324", "foodbank": "Bromley Borough", "foodbank_slug": "bromley-borough", "foodbank_url": "https://www.givefood.org.uk/needs/at/bromley-borough/", "parliamentary_constituency": "Bromley and Biggin Hill" }, "geometry": { "type": "Point", "coordinates": [ 0.0185272, 51.4039467 ] } },
{ "type": "Feature", "properties": { "name": "Handley Page Community Centre, Sutton Foodbank", "slug": "handley-page-community-centre", "address": "2 Handley Page Road\r\nWallington\r\nSM6 9GT", "url": "https://www.givefood.org.uk/needs/at/sutton/handley-page-community-centre/", "network": "Trussell", "email": "admin@suttoncommunityworks.org", "telephone": "07525838640", "foodbank": "Sutton", "foodbank_slug": "sutton", "foodbank_url": "https://www.givefood.org.uk/needs/at/sutton/", "parliamentary_constituency": "Carshalton and Wallington" }, "geometry": { "type": "Point", "coordinates": [ -0.1263201, 51.3541091 ] } },
{ "type": "Feature", "properties": { "name": "Bonny Downs, Newham District Foodbank", "slug": "bonny-downs", "address": "Bonny Downs Church Hall\r\n18 Darwell Close\r\nEast Ham\r\nLondon\r\nE6 6BT", "url": "https://www.givefood.org.uk/needs/at/newham-district/bonny-downs/", "network": "Trussell", "email": "info@newhamdistrict.foodbank.org.uk", "telephone": "02075111232", "foodbank": "Newham District", "foodbank_slug": "newham-district", "foodbank_url": "https://www.givefood.org.uk/needs/at/newham-district/", "parliamentary_constituency": "East Ham" }, "geometry": { "type": "Point", "coordinates": [ 0.0614995, 51.5287728 ] } },
{ "type": "Feature", "properties": { "name": "Manor Park Site, Highway Vineyard Church Foodbank", "slug": "manor-park-site", "address": "77 Gainsborough Avenue\r\nLondon\r\nE12 6JJ", "url": "https://www.givefood.org.uk/needs/at/highway-vineyard-church/manor-park-site/", "network": "Independent", "email": "info@highwaychurch.org", "telephone": "02085344019", "foodbank": "Highway Vineyard Church", "foodbank_slug": "highway-vineyard-church", "foodbank_url": "https://www.givefood.org.uk/needs/at/highway-vineyard-church/", "parliamentary_constituency": "East Ham" }, "geometry": { "type": "Point", "coordinates": [ 0.0642927, 51.547338 ] } },
{ "type": "Feature", "properties": { "name": "Mortlake, Richmond Foodbank", "slug": "mortlake", "address": "The PowerStation\r\n121 Mortlake High Street\r\nMortlake\r\nSW14 8SN", "url": "https://www.givefood.org.uk/needs/at/richmond/mortlake/", "network": "Trussell", "email": "foodbank@vineyardcommunity.org", "telephone": "07516935655", "foodbank": "Richmond", "foodbank_slug": "richmond", "foodbank_url": "https://www.givefood.org.uk/needs/at/richmond/", "parliamentary_constituency": "Richmond Park" }, "geometry": { "type": "Point", "coordinates": [ -0.2581521, 51.470215 ] } },
{ "type": "Feature", "properties": { "name": "Royal Docks Learning & Activity Centre, Newham District Foodbank", "slug": "royal-docks-learning-activity-centre", "address": "Albert Road\r\nNorth Woolwich\r\nLondon\r\nE16 2JB", "url": "https://www.givefood.org.uk/needs/at/newham-district/royal-docks-learning-activity-centre/", "network": "Trussell", "email": "info@newhamdistrict.foodbank.org.uk", "telephone": "02075111232", "foodbank": "Newham District", "foodbank_slug": "newham-district", "foodbank_url": "https://www.givefood.org.uk/needs/at/newham-district/", "parliamentary_constituency": "West Ham and Beckton" }, "geometry": { "type": "Point", "coordinates": [ 0.058342, 51.500721 ] } },
{ "type": "Feature", "properties": { "name": "Mitcham Lane Baptist Church, Wandsworth Foodbank", "slug": "mitcham-lane-baptist-church", "address": "Mitcham Lane\r\nFurzedown/Tooting\r\nSW16 6NT", "url": "https://www.givefood.org.uk/needs/at/wandsworth/mitcham-lane-baptist-church/", "network": "Trussell", "email": "info@wandsworth.foodbank.org.uk", "telephone": "02073269428", "foodbank": "Wandsworth", "foodbank_slug": "wandsworth", "foodbank_url": "https://www.givefood.org.uk/needs/at/wandsworth/", "parliamentary_constituency": "Tooting" }, "geometry": { "type": "Point", "coordinates": [ -0.1457384, 51.4211688 ] } },
{ "type": "Feature", "properties": { "name": "Bishop Andrewes' Church, Sutton Foodbank", "slug": "bishop-andrewes-church", "address": "59 Wigmore Road\r\nCarshalton\r\nSM5 1RG", "url": "https://www.givefood.org.uk/needs/at/sutton/bishop-andrewes-church/", "network": "Trussell", "email": "admin@suttoncommunityworks.org", "telephone": "07525838640", "foodbank": "Sutton", "foodbank_slug": "sutton", "foodbank_url": "https://www.givefood.org.uk/needs/at/sutton/", "parliamentary_constituency": "Carshalton and Wallington" }, "geometry": { "type": "Point", "coordinates": [ -0.1760844, 51.3796406 ] } },
{ "type": "Feature", "properties": { "name": "Church of the Good Shepherd, AFRIL Foodbank", "slug": "church-of-the-good-shepherd", "address": "Handen Road\r\nLondon\r\nSE12 8NR", "url": "https://www.givefood.org.uk/needs/at/afril/church-of-the-good-shepherd/", "network": "IFAN", "email": "foodbank@afril.org.uk", "telephone": "02082974111", "foodbank": "AFRIL", "foodbank_slug": "afril", "foodbank_url": "https://www.givefood.org.uk/needs/at/afril/", "parliamentary_constituency": "Lewisham East" }, "geometry": { "type": "Point", "coordinates": [ 0.0080376, 51.4527113 ] } },
{ "type": "Feature", "properties": { "name": "Southall, Ealing Foodbank", "slug": "southall", "address": "St Anselm's RC Church\r\nThe Green\r\nSouthall\r\nUB2 4BE", "url": "https://www.givefood.org.uk/needs/at/ealing/southall/", "network": "Trussell", "email": "info@ealing.foodbank.org.uk", "telephone": "02088409428", "foodbank": "Ealing", "foodbank_slug": "ealing", "foodbank_url": "https://www.givefood.org.uk/needs/at/ealing/", "parliamentary_constituency": "Ealing Southall" }, "geometry": { "type": "Point", "coordinates": [ -0.3805488, 51.5037701 ] } },
{ "type": "Feature", "properties": { "name": "Southall (Saturday), Ealing Foodbank", "slug": "southall-saturday", "address": "Unit 13\r\nCranleigh Gardens Industrial Estate\r\nSouthall\r\nUB1 2BZ", "url": "https://www.givefood.org.uk/needs/at/ealing/southall-saturday/", "network": "Trussell", "email": "info@ealing.foodbank.org.uk", "telephone": "02088409428", "foodbank": "Ealing", "foodbank_slug": "ealing", "foodbank_url": "https://www.givefood.org.uk/needs/at/ealing/", "parliamentary_constituency": "Ealing Southall" }, "geometry": { "type": "Point", "coordinates": [ -0.3783523, 51.521668299999988 ] } },
{ "type": "Feature", "properties": { "name": "South Harrow Baptist Church, Harrow Foodbank", "slug": "south-harrow-baptist-church", "address": "270 Northolt Road\r\nSouth Harrow\r\nHarrow\r\nHA2 8EB", "url": "https://www.givefood.org.uk/needs/at/harrow/south-harrow-baptist-church/", "network": "Trussell", "email": "info@harrow.foodbank.org.uk", "telephone": "02084167344", "foodbank": "Harrow", "foodbank_slug": "harrow", "foodbank_url": "https://www.givefood.org.uk/needs/at/harrow/", "parliamentary_constituency": "Harrow West" }, "geometry": { "type": "Point", "coordinates": [ -0.3550665, 51.5636698 ] } },
{ "type": "Feature", "properties": { "name": "Oasis Centre, Lambeth & Croydon Foodbank", "slug": "oasis-centre", "address": "1 Kennington Road\r\nLondon\r\nSE1 7QP", "url": "https://www.givefood.org.uk/needs/at/lambeth-croydon/oasis-centre/", "network": "Trussell", "email": "foodbank@oasiswaterloo.org", "telephone": "02079214205", "foodbank": "Lambeth & Croydon", "foodbank_slug": "lambeth-croydon", "foodbank_url": "https://www.givefood.org.uk/needs/at/lambeth-croydon/", "parliamentary_constituency": "Vauxhall and Camberwell Green" }, "geometry": { "type": "Point", "coordinates": [ -0.1119271, 51.4981936 ] } },
{ "type": "Feature", "properties": { "name": "St Simon's Church, Hammersmith & Fulham Foodbank", "slug": "st-simons-church", "address": "Rockley Road\r\nW14 0DA", "url": "https://www.givefood.org.uk/needs/at/hammersmith-fulham/st-simons-church/", "network": "Trussell", "email": "info@hammersmithfulham.foodbank.org.uk", "telephone": "02077313693", "foodbank": "Hammersmith & Fulham", "foodbank_slug": "hammersmith-fulham", "foodbank_url": "https://www.givefood.org.uk/needs/at/hammersmith-fulham/", "parliamentary_constituency": "Hammersmith and Chiswick" }, "geometry": { "type": "Point", "coordinates": [ -0.2200076, 51.5021287 ] } },
{ "type": "Feature", "properties": { "name": "Kenton Methodist Church, Harrow Foodbank", "slug": "kenton-methodist-church", "address": "Woodgrange Avenue\r\nKenton\r\nMiddlesex\r\nHA3 0XF", "url": "https://www.givefood.org.uk/needs/at/harrow/kenton-methodist-church/", "network": "Trussell", "email": "info@harrow.foodbank.org.uk", "telephone": "02084167344", "foodbank": "Harrow", "foodbank_slug": "harrow", "foodbank_url": "https://www.givefood.org.uk/needs/at/harrow/", "parliamentary_constituency": "Brent West" }, "geometry": { "type": "Point", "coordinates": [ -0.3080007, 51.586029 ] } },
{ "type": "Feature", "properties": { "name": "Pollards Hill Baptist Church, Wimbledon Foodbank", "slug": "pollards-hill-baptist-church", "address": "Wide Way\r\nPollards Hill\r\nCR4 3BN", "url": "https://www.givefood.org.uk/needs/at/wimbledon/pollards-hill-baptist-church/", "network": "Trussell", "email": "wimbledonfoodbank@gmail.com", "telephone": "02085440126", "foodbank": "Wimbledon", "foodbank_slug": "wimbledon", "foodbank_url": "https://www.givefood.org.uk/needs/at/wimbledon/", "parliamentary_constituency": "Mitcham and Morden" }, "geometry": { "type": "Point", "coordinates": [ -0.1349622, 51.4020494 ] } },
{ "type": "Feature", "properties": { "name": "Lewisham, Lewisham Foodbank", "slug": "lewisham", "address": "Salvation Army\r\n4 Albion Way\r\nLewisham\r\nSE13 6BT", "url": "https://www.givefood.org.uk/needs/at/lewisham/lewisham/", "network": "Trussell", "email": "info@lewisham.foodbank.org.uk", "telephone": "07938071854", "foodbank": "Lewisham", "foodbank_slug": "lewisham", "foodbank_url": "https://www.givefood.org.uk/needs/at/lewisham/", "parliamentary_constituency": "Lewisham North" }, "geometry": { "type": "Point", "coordinates": [ -0.0091759, 51.4607421 ] } },
{ "type": "Feature", "properties": { "name": "Plumstead, Greenwich Foodbank", "slug": "plumstead", "address": "East Plumstead Baptist Church\r\nGriffin Road\r\nPlumstead\r\nLondon\r\nSE18 7PZ", "url": "https://www.givefood.org.uk/needs/at/greenwich/plumstead/", "network": "Trussell", "email": "plumstead@greenwichfoodbank.co.uk", "telephone": null, "foodbank": "Greenwich", "foodbank_slug": "greenwich", "foodbank_url": "https://www.givefood.org.uk/needs/at/greenwich/", "parliamentary_constituency": "Erith and Thamesmead" }, "geometry": { "type": "Point", "coordinates": [ 0.0847463, 51.4896774 ] } },
{ "type": "Feature", "properties": { "name": "Hanwell, Ealing Foodbank", "slug": "hanwell", "address": "St Mellitus Church\r\nChurch Rd\r\nHanwell\r\nW7 3BA", "url": "https://www.givefood.org.uk/needs/at/ealing/hanwell/", "network": "Trussell", "email": "info@ealing.foodbank.org.uk", "telephone": "02088409428", "foodbank": "Ealing", "foodbank_slug": "ealing", "foodbank_url": "https://www.givefood.org.uk/needs/at/ealing/", "parliamentary_constituency": "Ealing Southall" }, "geometry": { "type": "Point", "coordinates": [ -0.3349394, 51.509356 ] } },
{ "type": "Feature", "properties": { "name": "Streatham, Lambeth & Croydon Foodbank", "slug": "streatham", "address": "Immanuel and St Andrew's Church\r\n452 Streatham High Road\r\nLondon\r\nSW16 3PY", "url": "https://www.givefood.org.uk/needs/at/lambeth-croydon/streatham/", "network": "Trussell", "email": "foodbank@oasiswaterloo.org", "telephone": "02079214205", "foodbank": "Lambeth & Croydon", "foodbank_slug": "lambeth-croydon", "foodbank_url": "https://www.givefood.org.uk/needs/at/lambeth-croydon/", "parliamentary_constituency": "Streatham and Croydon North" }, "geometry": { "type": "Point", "coordinates": [ -0.1286179, 51.4205907 ] } },
{ "type": "Feature", "properties": { "name": "Deptford, Lewisham Foodbank", "slug": "deptford", "address": "Salvation Army\r\nMary Ann Gardens\r\nDeptford\r\nSE8 3DP", "url": "https://www.givefood.org.uk/needs/at/lewisham/deptford/", "network": "Trussell", "email": "info@lewisham.foodbank.org.uk", "telephone": "07938071854", "foodbank": "Lewisham", "foodbank_slug": "lewisham", "foodbank_url": "https://www.givefood.org.uk/needs/at/lewisham/", "parliamentary_constituency": "Lewisham North" }, "geometry": { "type": "Point", "coordinates": [ -0.0254715, 51.4803188 ] } },
{ "type": "Feature", "properties": { "name": "7 Dials Club, Covent Garden Foodbank", "slug": "7-dials-club", "address": "42 Earlham Street\r\nLondon\r\nWC2H 9LA", "url": "https://www.givefood.org.uk/needs/at/covent-garden/7-dials-club/", "network": "Independent", "email": "foodbank@cgcc.org.uk", "telephone": "02076911577", "foodbank": "Covent Garden", "foodbank_slug": "covent-garden", "foodbank_url": "https://www.givefood.org.uk/needs/at/covent-garden/", "parliamentary_constituency": "Holborn and St Pancras" }, "geometry": { "type": "Point", "coordinates": [ -0.1260621, 51.5137666 ] } },
{ "type": "Feature", "properties": { "name": "Ruislip, Hillingdon Foodbank", "slug": "ruislip", "address": "St Gregory The Great Catholic Church\r\n447 Victoria Road\r\nSouth Ruislip\r\nHA4 0EG", "url": "https://www.givefood.org.uk/needs/at/hillingdon/ruislip/", "network": "Trussell", "email": "hillingdonfoodbank@kingsborough.org.uk", "telephone": "01895252224", "foodbank": "Hillingdon", "foodbank_slug": "hillingdon", "foodbank_url": "https://www.givefood.org.uk/needs/at/hillingdon/", "parliamentary_constituency": "Uxbridge and South Ruislip" }, "geometry": { "type": "Point", "coordinates": [ -0.3986816, 51.5598899 ] } },
{ "type": "Feature", "properties": { "name": "Woodford Baptist Church, Redbridge Foodbank", "slug": "woodford-baptist-church", "address": "George Lane\r\nSouth Woodford\r\nLondon\r\nE18 1LW", "url": "https://www.givefood.org.uk/needs/at/redbridge/woodford-baptist-church/", "network": "Trussell", "email": "info@redbridgefoodbank.org", "telephone": "02085180056", "foodbank": "Redbridge", "foodbank_slug": "redbridge", "foodbank_url": "https://www.givefood.org.uk/needs/at/redbridge/", "parliamentary_constituency": "Leyton and Wanstead" }, "geometry": { "type": "Point", "coordinates": [ 0.029011, 51.5909513 ] } },
{ "type": "Feature", "properties": { "name": "Stoke Newington, Hackney Foodbank", "slug": "stoke-newington", "address": "St Mary's Church\r\nChurch Street\r\nStoke Newington\r\nN16 9ES", "url": "https://www.givefood.org.uk/needs/at/hackney/stoke-newington/", "network": "Trussell", "email": "info@hackneyfoodbank.org", "telephone": "02072542464", "foodbank": "Hackney", "foodbank_slug": "hackney", "foodbank_url": "https://www.givefood.org.uk/needs/at/hackney/", "parliamentary_constituency": "Hackney North and Stoke Newington" }, "geometry": { "type": "Point", "coordinates": [ -0.0847466, 51.5608082 ] } },
{ "type": "Feature", "properties": { "name": "Flowing Rivers Centre, Dagenham Foodbank", "slug": "flowing-rivers-centre", "address": "121 Broad Street\r\nDagenham\r\nRM10 9HP", "url": "https://www.givefood.org.uk/needs/at/dagenham/flowing-rivers-centre/", "network": "Trussell", "email": "info@dagenham.foodbank.org.uk", "telephone": "02085950122", "foodbank": "Dagenham", "foodbank_slug": "dagenham", "foodbank_url": "https://www.givefood.org.uk/needs/at/dagenham/", "parliamentary_constituency": "Dagenham and Rainham" }, "geometry": { "type": "Point", "coordinates": [ 0.151322, 51.536184899999988 ] } },
{ "type": "Feature", "properties": { "name": "Fulwell, Richmond Foodbank", "slug": "fulwell", "address": "St Michael's Fulwell\r\nWilcox Rd\r\nTeddington\r\nTW11 0SP", "url": "https://www.givefood.org.uk/needs/at/richmond/fulwell/", "network": "Trussell", "email": "foodbank@vineyardcommunity.org", "telephone": "07516935655", "foodbank": "Richmond", "foodbank_slug": "richmond", "foodbank_url": "https://www.givefood.org.uk/needs/at/richmond/", "parliamentary_constituency": "Twickenham" }, "geometry": { "type": "Point", "coordinates": [ -0.3477238, 51.4335414 ] } },
{ "type": "Feature", "properties": { "name": "Central Orpington, Bromley Borough Foodbank", "slug": "central-orpington", "address": "Unit 7-9\r\nWalnuts Shopping Centre\r\nOrpington High Street\r\nBR6 0TW", "url": "https://www.givefood.org.uk/needs/at/bromley-borough/central-orpington/", "network": "Trussell", "email": "info@bromleyborough.foodbank.org.uk", "telephone": "08009202324", "foodbank": "Bromley Borough", "foodbank_slug": "bromley-borough", "foodbank_url": "https://www.givefood.org.uk/needs/at/bromley-borough/", "parliamentary_constituency": "Orpington" }, "geometry": { "type": "Point", "coordinates": [ 0.1018897, 51.377535900000012 ] } },
{ "type": "Feature", "properties": { "name": "Shaftesbury Christian Centre, Wandsworth Foodbank", "slug": "shaftesbury-christian-centre", "address": "2 Austin Road\r\nBattersea\r\nSW11 5JP", "url": "https://www.givefood.org.uk/needs/at/wandsworth/shaftesbury-christian-centre/", "network": "Trussell", "email": "info@wandsworth.foodbank.org.uk", "telephone": "02073269428", "foodbank": "Wandsworth", "foodbank_slug": "wandsworth", "foodbank_url": "https://www.givefood.org.uk/needs/at/wandsworth/", "parliamentary_constituency": "Battersea" }, "geometry": { "type": "Point", "coordinates": [ -0.1547901, 51.4736196 ] } },
{ "type": "Feature", "properties": { "name": "Eltham, Greenwich Foodbank", "slug": "eltham", "address": "57 Well Hall Road\nEltham\nLondon\r\nSE9 6SZ", "url": "https://www.givefood.org.uk/needs/at/greenwich/eltham/", "network": "Trussell", "email": "info@greenwich.foodbank.org.uk", "telephone": null, "foodbank": "Greenwich", "foodbank_slug": "greenwich", "foodbank_url": "https://www.givefood.org.uk/needs/at/greenwich/", "parliamentary_constituency": "Eltham and Chislehurst" }, "geometry": { "type": "Point", "coordinates": [ 0.0517935, 51.4526699 ] } },
{ "type": "Feature", "properties": { "name": "The Ascension Church, Collier Row & Romford Foodbank", "slug": "the-ascension-church", "address": "Collier Row Road\r\nRomford\r\nRM5 2BA", "url": "https://www.givefood.org.uk/needs/at/collier-row-romford/the-ascension-church/", "network": "Trussell", "email": "info@collierrowromford.foodbank.org.uk", "telephone": "07548674958", "foodbank": "Collier Row & Romford", "foodbank_slug": "collier-row-romford", "foodbank_url": "https://www.givefood.org.uk/needs/at/collier-row-romford/", "parliamentary_constituency": "Romford" }, "geometry": { "type": "Point", "coordinates": [ 0.1602837, 51.598825299999987 ] } },
{ "type": "Feature", "properties": { "name": "Chadwell Heath Centre, Barking Foodbank", "slug": "chadwell-heath-centre", "address": "United Reformed Church\r\nMill Lane\r\nChadwell Heath\r\nRomford\r\nRM6 6RS", "url": "https://www.givefood.org.uk/needs/at/barking/chadwell-heath-centre/", "network": "Trussell", "email": "barkingfoodbank@gmail.com", "telephone": "02086170660", "foodbank": "Barking", "foodbank_slug": "barking", "foodbank_url": "https://www.givefood.org.uk/needs/at/barking/", "parliamentary_constituency": "Ilford South" }, "geometry": { "type": "Point", "coordinates": [ 0.1395997, 51.5753341 ] } },
{ "type": "Feature", "properties": { "name": "Tottenham SDA, 3food4u Foodbank", "slug": "tottenham-sda", "address": "235-255 W Green Road\r\nLondon\r\nN15 5EG", "url": "https://www.givefood.org.uk/needs/at/3food4u/tottenham-sda/", "network": "IFAN", "email": "info.3food4u@gmail.com", "telephone": "01992842642", "foodbank": "3food4u", "foodbank_slug": "3food4u", "foodbank_url": "https://www.givefood.org.uk/needs/at/3food4u/", "parliamentary_constituency": "Tottenham" }, "geometry": { "type": "Point", "coordinates": [ -0.0858254, 51.5860791 ] } },
{ "type": "Feature", "properties": { "name": "Roehampton Methodist Church, Wandsworth Foodbank", "slug": "roehampton-methodist-church", "address": "Minstead Gardens\r\nLondon\r\nSW15 4EP", "url": "https://www.givefood.org.uk/needs/at/wandsworth/roehampton-methodist-church/", "network": "Trussell", "email": "info@wandsworth.foodbank.org.uk", "telephone": "02073269428", "foodbank": "Wandsworth", "foodbank_slug": "wandsworth", "foodbank_url": "https://www.givefood.org.uk/needs/at/wandsworth/", "parliamentary_constituency": "Putney" }, "geometry": { "type": "Point", "coordinates": [ -0.2493257, 51.4517689 ] } },
{ "type": "Feature", "properties": { "name": "The Kings Centre, Kingston Foodbank", "slug": "the-kings-centre", "address": "Coppard Gardens\r\nChessington\r\nKT9 2GZ", "url": "https://www.givefood.org.uk/needs/at/kingston/the-kings-centre/", "network": "Trussell", "email": "info@kingston.foodbank.org.uk", "telephone": "02083911100", "foodbank": "Kingston", "foodbank_slug": "kingston", "foodbank_url": "https://www.givefood.org.uk/needs/at/kingston/", "parliamentary_constituency": "Kingston and Surbiton" }, "geometry": { "type": "Point", "coordinates": [ -0.314401, 51.36252 ] } },
{ "type": "Feature", "properties": { "name": "Blackheath, Greenwich Foodbank", "slug": "blackheath", "address": "Blackheath & Charlton Baptist Church\nMarlborough Lane\nCharlton\nLondon\r\nSE7 7DF", "url": "https://www.givefood.org.uk/needs/at/greenwich/blackheath/", "network": "Trussell", "email": "info@greenwich.foodbank.org.uk", "telephone": null, "foodbank": "Greenwich", "foodbank_slug": "greenwich", "foodbank_url": "https://www.givefood.org.uk/needs/at/greenwich/", "parliamentary_constituency": "Greenwich and Woolwich" }, "geometry": { "type": "Point", "coordinates": [ 0.0330132, 51.4775901 ] } },
{ "type": "Feature", "properties": { "name": "Elim Mitcham, Wimbledon Foodbank", "slug": "elim-mitcham", "address": "Love Lane\r\nMitcham\r\nCR4 3AU", "url": "https://www.givefood.org.uk/needs/at/wimbledon/elim-mitcham/", "network": "Trussell", "email": "wimbledonfoodbank@gmail.com", "telephone": "02085440126", "foodbank": "Wimbledon", "foodbank_slug": "wimbledon", "foodbank_url": "https://www.givefood.org.uk/needs/at/wimbledon/", "parliamentary_constituency": "Mitcham and Morden" }, "geometry": { "type": "Point", "coordinates": [ -0.1699289, 51.4039649 ] } },
{ "type": "Feature", "properties": { "name": "Northolt, Ealing Foodbank", "slug": "northolt", "address": "St Barnabas C of E Church\r\nThe Fairway\r\nNortholt\r\nUB5 4SX", "url": "https://www.givefood.org.uk/needs/at/ealing/northolt/", "network": "Trussell", "email": "info@ealing.foodbank.org.uk", "telephone": "02088409428", "foodbank": "Ealing", "foodbank_slug": "ealing", "foodbank_url": "https://www.givefood.org.uk/needs/at/ealing/", "parliamentary_constituency": "Ealing North" }, "geometry": { "type": "Point", "coordinates": [ -0.3528343, 51.550495 ] } },
{ "type": "Feature", "properties": { "name": "Acton, Ealing Foodbank", "slug": "acton", "address": "Oak Tree Anglican Fellowship\r\n216 High St\r\nActon\r\nW3 9NX", "url": "https://www.givefood.org.uk/needs/at/ealing/acton/", "network": "Trussell", "email": "info@ealing.foodbank.org.uk", "telephone": "02088409428", "foodbank": "Ealing", "foodbank_slug": "ealing", "foodbank_url": "https://www.givefood.org.uk/needs/at/ealing/", "parliamentary_constituency": "Ealing Central and Acton" }, "geometry": { "type": "Point", "coordinates": [ -0.2732981, 51.5079222 ] } },
{ "type": "Feature", "properties": { "name": "Coldharbour, Greenwich Foodbank", "slug": "coldharbour", "address": "Coldharbour Community Hall\nWilliam Barefoot Drive\nColdharbour Estate\nLondon\r\nSE9 3JD", "url": "https://www.givefood.org.uk/needs/at/greenwich/coldharbour/", "network": "Trussell", "email": "info@greenwich.foodbank.org.uk", "telephone": null, "foodbank": "Greenwich", "foodbank_slug": "greenwich", "foodbank_url": "https://www.givefood.org.uk/needs/at/greenwich/", "parliamentary_constituency": "Eltham and Chislehurst" }, "geometry": { "type": "Point", "coordinates": [ 0.05833, 51.4308388 ] } },
{ "type": "Feature", "properties": { "name": "Thamesmead B, Greenwich Foodbank", "slug": "thamesmead-b", "address": "Emmanuel Baptist Church\nSt Katherines Street\nErith\r\nDA18 4DS", "url": "https://www.givefood.org.uk/needs/at/greenwich/thamesmead-b/", "network": "Trussell", "email": "info@greenwich.foodbank.org.uk", "telephone": null, "foodbank": "Greenwich", "foodbank_slug": "greenwich", "foodbank_url": "https://www.givefood.org.uk/needs/at/greenwich/", "parliamentary_constituency": "Erith and Thamesmead" }, "geometry": { "type": "Point", "coordinates": [ 0.1297379, 51.4979427 ] } },
{ "type": "Feature", "properties": { "name": "Morden Baptist Church, Wimbledon Foodbank", "slug": "morden-baptist-church", "address": "Crown Lane\r\nMorden\r\nSM4 5BL", "url": "https://www.givefood.org.uk/needs/at/wimbledon/morden-baptist-church/", "network": "Trussell", "email": "wimbledonfoodbank@gmail.com", "telephone": "02085440126", "foodbank": "Wimbledon", "foodbank_slug": "wimbledon", "foodbank_url": "https://www.givefood.org.uk/needs/at/wimbledon/", "parliamentary_constituency": "Wimbledon" }, "geometry": { "type": "Point", "coordinates": [ -0.1959354, 51.4016703 ] } },
{ "type": "Feature", "properties": { "name": "Woolwich, Greenwich Foodbank", "slug": "woolwich", "address": "St Peter’s Catholic Church\r\nWoolwich New Road\r\nLondon\r\nSE18 6EF", "url": "https://www.givefood.org.uk/needs/at/greenwich/woolwich/", "network": "Trussell", "email": "woolwich@greenwichfoodbank.co.uk", "telephone": null, "foodbank": "Greenwich", "foodbank_slug": "greenwich", "foodbank_url": "https://www.givefood.org.uk/needs/at/greenwich/", "parliamentary_constituency": "Greenwich and Woolwich" }, "geometry": { "type": "Point", "coordinates": [ 0.0667899, 51.4883094 ] } },
{ "type": "Feature", "properties": { "name": "Croydon, Lambeth & Croydon Foodbank", "slug": "croydon", "address": "St Alban the Martryr Church\r\nGrange Road\r\nThornton Heath\r\nCR7 8SA", "url": "https://www.givefood.org.uk/needs/at/lambeth-croydon/croydon/", "network": "Trussell", "email": "foodbank@oasiswaterloo.org", "telephone": "02079214205", "foodbank": "Lambeth & Croydon", "foodbank_slug": "lambeth-croydon", "foodbank_url": "https://www.givefood.org.uk/needs/at/lambeth-croydon/", "parliamentary_constituency": "Streatham and Croydon North" }, "geometry": { "type": "Point", "coordinates": [ -0.0929504, 51.3990233 ] } },
{ "type": "Feature", "properties": { "name": "Orpington, Bromley Borough Foodbank", "slug": "orpington", "address": "Oak Community Church\r\n345 Chipperfield Road\r\nSt Paul's Cray\r\nBR5 2LJ", "url": "https://www.givefood.org.uk/needs/at/bromley-borough/orpington/", "network": "Trussell", "email": "info@bromleyborough.foodbank.org.uk", "telephone": "01689823568", "foodbank": "Bromley Borough", "foodbank_slug": "bromley-borough", "foodbank_url": "https://www.givefood.org.uk/needs/at/bromley-borough/", "parliamentary_constituency": "Orpington" }, "geometry": { "type": "Point", "coordinates": [ 0.10749, 51.395672 ] } },
{ "type": "Feature", "properties": { "name": "Barnes, Richmond Foodbank", "slug": "barnes", "address": "Castelnau Community Centre\r\n7 Stillingfleet Road\r\nSW13 9AQ", "url": "https://www.givefood.org.uk/needs/at/richmond/barnes/", "network": "Trussell", "email": "foodbank@vineyardcommunity.org", "telephone": "07516935655", "foodbank": "Richmond", "foodbank_slug": "richmond", "foodbank_url": "https://www.givefood.org.uk/needs/at/richmond/", "parliamentary_constituency": "Richmond Park" }, "geometry": { "type": "Point", "coordinates": [ -0.240922, 51.483657 ] } },
{ "type": "Feature", "properties": { "name": "The Yard, Putney, Wandsworth Foodbank", "slug": "the-yard-putney", "address": "The Yard\r\n401-403 Tildesley Road\r\nPutney\r\nSW15 3BD", "url": "https://www.givefood.org.uk/needs/at/wandsworth/the-yard-putney/", "network": "Trussell", "email": "info@wandsworth.foodbank.org.uk", "telephone": "02073269428", "foodbank": "Wandsworth", "foodbank_slug": "wandsworth", "foodbank_url": "https://www.givefood.org.uk/needs/at/wandsworth/", "parliamentary_constituency": "Putney" }, "geometry": { "type": "Point", "coordinates": [ -0.2290289, 51.455202 ] } },
{ "type": "Feature", "properties": { "name": "Uxbridge, Hillingdon Foodbank", "slug": "uxbridge", "address": "St Margaret’s Church\r\nWindsor Street\r\nUxbridge\r\nUB8 1AB", "url": "https://www.givefood.org.uk/needs/at/hillingdon/uxbridge/", "network": "Trussell", "email": "hillingdonfoodbank@kingsborough.org.uk", "telephone": "01895252224", "foodbank": "Hillingdon", "foodbank_slug": "hillingdon", "foodbank_url": "https://www.givefood.org.uk/needs/at/hillingdon/", "parliamentary_constituency": "Uxbridge and South Ruislip" }, "geometry": { "type": "Point", "coordinates": [ -0.479649, 51.5458916 ] } },
{ "type": "Feature", "properties": { "name": "Brixton, Lambeth & Croydon Foodbank", "slug": "brixton", "address": "Brixton Hill Methodist Church\r\nElm Park\r\nLondon\r\nSW2 2TX", "url": "https://www.givefood.org.uk/needs/at/lambeth-croydon/brixton/", "network": "Trussell", "email": "foodbank@oasiswaterloo.org", "telephone": "02079214205", "foodbank": "Lambeth & Croydon", "foodbank_slug": "lambeth-croydon", "foodbank_url": "https://www.givefood.org.uk/needs/at/lambeth-croydon/", "parliamentary_constituency": "Clapham and Brixton Hill" }, "geometry": { "type": "Point", "coordinates": [ -0.1206132, 51.451426 ] } },
{ "type": "Feature", "properties": { "name": "Forest Hill, Lewisham Foodbank", "slug": "forest-hill", "address": "Perry Rise Baptist Church\r\nPerry Rise\r\nSE23 2QL", "url": "https://www.givefood.org.uk/needs/at/lewisham/forest-hill/", "network": "Trussell", "email": "info@lewisham.foodbank.org.uk", "telephone": "07938071854", "foodbank": "Lewisham", "foodbank_slug": "lewisham", "foodbank_url": "https://www.givefood.org.uk/needs/at/lewisham/", "parliamentary_constituency": "Lewisham West and East Dulwich" }, "geometry": { "type": "Point", "coordinates": [ -0.0432624, 51.434970799999988 ] } },
{ "type": "Feature", "properties": { "name": "St Katherine's Church, Hammersmith & Fulham Foodbank", "slug": "st-katherines-church", "address": "St Katherine's Church\r\nWestway (corner with Primula Street)\r\nW12 0SD", "url": "https://www.givefood.org.uk/needs/at/hammersmith-fulham/st-katherines-church/", "network": "Trussell", "email": "info@hammersmithfulham.foodbank.org.uk", "telephone": "02077313693", "foodbank": "Hammersmith & Fulham", "foodbank_slug": "hammersmith-fulham", "foodbank_url": "https://www.givefood.org.uk/needs/at/hammersmith-fulham/", "parliamentary_constituency": "Ealing Central and Acton" }, "geometry": { "type": "Point", "coordinates": [ -0.2429761, 51.514613 ] } },
{ "type": "Feature", "properties": { "name": "Downham, Lewisham Foodbank", "slug": "downham", "address": "St John the Baptist Church\r\n353 Bromley Road\r\nSE6 2RP", "url": "https://www.givefood.org.uk/needs/at/lewisham/downham/", "network": "Trussell", "email": "info@lewisham.foodbank.org.uk", "telephone": "07938071854", "foodbank": "Lewisham", "foodbank_slug": "lewisham", "foodbank_url": "https://www.givefood.org.uk/needs/at/lewisham/", "parliamentary_constituency": "Lewisham East" }, "geometry": { "type": "Point", "coordinates": [ -0.0112839, 51.4282918 ] } },
{ "type": "Feature", "properties": { "name": "Dalston, Hackney Foodbank", "slug": "dalston", "address": "Our Ladies and St Joseph Church\r\n100a Balls Pond Road\r\nDalston\r\nLondon\r\nN1 4AG", "url": "https://www.givefood.org.uk/needs/at/hackney/dalston/", "network": "Trussell", "email": "info@hackneyfoodbank.org", "telephone": "02072542464", "foodbank": "Hackney", "foodbank_slug": "hackney", "foodbank_url": "https://www.givefood.org.uk/needs/at/hackney/", "parliamentary_constituency": "Islington North" }, "geometry": { "type": "Point", "coordinates": [ -0.0815852, 51.5468954 ] } },
{ "type": "Feature", "properties": { "name": "Hoxton, Hackney Foodbank", "slug": "hoxton", "address": "Museum of the Home\r\nFire Gate 3 Entrance\r\nGeffrye Street\r\nHoxton\r\nE2 8EA", "url": "https://www.givefood.org.uk/needs/at/hackney/hoxton/", "network": "Trussell", "email": "info@hackneyfoodbank.org", "telephone": "02072542464", "foodbank": "Hackney", "foodbank_slug": "hackney", "foodbank_url": "https://www.givefood.org.uk/needs/at/hackney/", "parliamentary_constituency": "Hackney South and Shoreditch" }, "geometry": { "type": "Point", "coordinates": [ -0.07644, 51.5315265 ] } },
{ "type": "Feature", "properties": { "name": "St Michael and St George's Church, Hammersmith & Fulham Foodbank", "slug": "st-michael-and-st-georges-church", "address": "1 Commonwealth Avenue\r\nLondon\r\nW12 7QR", "url": "https://www.givefood.org.uk/needs/at/hammersmith-fulham/st-michael-and-st-georges-church/", "network": "Trussell", "email": "info@hammersmithfulham.foodbank.org.uk", "telephone": "02087467718", "foodbank": "Hammersmith & Fulham", "foodbank_slug": "hammersmith-fulham", "foodbank_url": "https://www.givefood.org.uk/needs/at/hammersmith-fulham/", "parliamentary_constituency": "Hammersmith and Chiswick" }, "geometry": { "type": "Point", "coordinates": [ -0.2306244, 51.5124687 ] } },
{ "type": "Feature", "properties": { "name": "Pembury, Hackney Foodbank", "slug": "pembury", "address": "Pembury Community Centre\r\n1 Atkins Square\r\nDalston Lane\r\nE8 1FA", "url": "https://www.givefood.org.uk/needs/at/hackney/pembury/", "network": "Trussell", "email": "info@hackneyfoodbank.org", "telephone": "02072542464", "foodbank": "Hackney", "foodbank_slug": "hackney", "foodbank_url": "https://www.givefood.org.uk/needs/at/hackney/", "parliamentary_constituency": "Hackney South and Shoreditch" }, "geometry": { "type": "Point", "coordinates": [ -0.0587778, 51.5497716 ] } },
{ "type": "Feature", "properties": { "name": "Holy Trinity Church Wealdstone, Harrow Foodbank", "slug": "holy-trinity-church-wealdstone", "address": "1a Headstone Drive\r\nWealdstone\r\nHarrow\r\nHA3 5QX", "url": "https://www.givefood.org.uk/needs/at/harrow/holy-trinity-church-wealdstone/", "network": "Trussell", "email": "info@harrow.foodbank.org.uk", "telephone": "02084167344", "foodbank": "Harrow", "foodbank_slug": "harrow", "foodbank_url": "https://www.givefood.org.uk/needs/at/harrow/", "parliamentary_constituency": "Harrow West" }, "geometry": { "type": "Point", "coordinates": [ -0.3355507, 51.5946154 ] } },
{ "type": "Feature", "properties": { "name": "Greenford Baptist Church, Ealing Foodbank", "slug": "greenford-baptist-church", "address": "Greenford Baptist Church\r\nBeechwood Avenue\r\nGreenford\r\nUB6 9UA", "url": "https://www.givefood.org.uk/needs/at/ealing/greenford-baptist-church/", "network": "Trussell", "email": "info@ealing.foodbank.org.uk", "telephone": "02088409428", "foodbank": "Ealing", "foodbank_slug": "ealing", "foodbank_url": "https://www.givefood.org.uk/needs/at/ealing/", "parliamentary_constituency": "Ealing North" }, "geometry": { "type": "Point", "coordinates": [ -0.3645326, 51.5314875 ] } },
{ "type": "Feature", "properties": { "name": "London Ghana SDA Church, Newham Foodbank", "slug": "london-ghana-sda-church", "address": "Chadwin Road\r\nPlaistow\r\nLondon\r\nE13 8NF", "url": "https://www.givefood.org.uk/needs/at/newham/london-ghana-sda-church/", "network": "IFAN", "email": "info@newhamfoodbank.org.uk", "telephone": "02074748095", "foodbank": "Newham", "foodbank_slug": "newham", "foodbank_url": "https://www.givefood.org.uk/needs/at/newham/", "parliamentary_constituency": "West Ham and Beckton" }, "geometry": { "type": "Point", "coordinates": [ 0.028342, 51.517833 ] } },
{ "type": "Feature", "properties": { "name": "Upper Clapton, Hackney Foodbank", "slug": "upper-clapton", "address": "St Andrews Church\r\n106 Bethune Road\r\nStoke Newington\r\nN16 5DU", "url": "https://www.givefood.org.uk/needs/at/hackney/upper-clapton/", "network": "Trussell", "email": "info@hackneyfoodbank.org", "telephone": "02072542464", "foodbank": "Hackney", "foodbank_slug": "hackney", "foodbank_url": "https://www.givefood.org.uk/needs/at/hackney/", "parliamentary_constituency": "Tottenham" }, "geometry": { "type": "Point", "coordinates": [ -0.080275, 51.5706481 ] } },
{ "type": "Feature", "properties": { "name": "Bell Farm Christian Centre, Yiewsley & West Drayton Foodbank", "slug": "bell-farm-christian-centre", "address": "Bell Farm Christian Centre\r\nSouth Road\r\nWest Drayton\r\nUB7 9LW", "url": "https://www.givefood.org.uk/needs/at/yiewsley-west-drayton/bell-farm-christian-centre/", "network": "Trussell", "email": "info@yiewsleywestdrayton.foodbank.org.uk", "telephone": "01895444406", "foodbank": "Yiewsley & West Drayton", "foodbank_slug": "yiewsley-west-drayton", "foodbank_url": "https://www.givefood.org.uk/needs/at/yiewsley-west-drayton/", "parliamentary_constituency": "Hayes and Harlington" }, "geometry": { "type": "Point", "coordinates": [ -0.4589181, 51.5016806 ] } },
{ "type": "Feature", "properties": { "name": "Kingsbury, Brent Foodbank", "slug": "kingsbury", "address": "Lindsay Park Baptist Church\r\nThe Mall\r\nKenton\r\nLondon\r\nHA3 9TG", "url": "https://www.givefood.org.uk/needs/at/brent/kingsbury/", "network": "Trussell", "email": "info@brent.foodbank.org.uk", "telephone": "02037455972", "foodbank": "Brent", "foodbank_slug": "brent", "foodbank_url": "https://www.givefood.org.uk/needs/at/brent/", "parliamentary_constituency": "Brent West" }, "geometry": { "type": "Point", "coordinates": [ -0.2834115, 51.5838988 ] } },
{ "type": "Feature", "properties": { "name": "New Malden Baptist Church, Kingston Foodbank", "slug": "new-malden-baptist-church", "address": "1a Westbury Road\r\nNew Malden\r\nKT3 5BE", "url": "https://www.givefood.org.uk/needs/at/kingston/new-malden-baptist-church/", "network": "Trussell", "email": "info@kingston.foodbank.org.uk", "telephone": "02083911100", "foodbank": "Kingston", "foodbank_slug": "kingston", "foodbank_url": "https://www.givefood.org.uk/needs/at/kingston/", "parliamentary_constituency": "Kingston and Surbiton" }, "geometry": { "type": "Point", "coordinates": [ -0.264607, 51.399948 ] } },
{ "type": "Feature", "properties": { "name": "St Michaels & All Angels Church, Sutton Foodbank", "slug": "st-michaels-all-angels-church", "address": "Milton Road\r\nWallington\r\nSM6 9RP", "url": "https://www.givefood.org.uk/needs/at/sutton/st-michaels-all-angels-church/", "network": "Trussell", "email": "admin@suttoncommunityworks.org", "telephone": "07525838640", "foodbank": "Sutton", "foodbank_slug": "sutton", "foodbank_url": "https://www.givefood.org.uk/needs/at/sutton/", "parliamentary_constituency": "Carshalton and Wallington" }, "geometry": { "type": "Point", "coordinates": [ -0.141401, 51.3575205 ] } },
{ "type": "Feature", "properties": { "name": "Kingston Everyday Church, Kingston Foodbank", "slug": "kingston-everyday-church", "address": "46 Union St\r\nKingston upon Thames\r\nKT1 1HZ", "url": "https://www.givefood.org.uk/needs/at/kingston/kingston-everyday-church/", "network": "Trussell", "email": "info@kingston.foodbank.org.uk", "telephone": "02083911100", "foodbank": "Kingston", "foodbank_slug": "kingston", "foodbank_url": "https://www.givefood.org.uk/needs/at/kingston/", "parliamentary_constituency": "Kingston and Surbiton" }, "geometry": { "type": "Point", "coordinates": [ -0.304877, 51.409206 ] } },
{ "type": "Feature", "properties": { "name": "Belvedere Community Centre, Bexley Foodbank", "slug": "belvedere-community-centre", "address": "Mitchell Close\r\nBelvedere\r\nDA17 6AA", "url": "https://www.givefood.org.uk/needs/at/bexley/belvedere-community-centre/", "network": "Trussell", "email": "info@bexley.foodbank.org.uk", "telephone": "02083115550", "foodbank": "Bexley", "foodbank_slug": "bexley", "foodbank_url": "https://www.givefood.org.uk/needs/at/bexley/", "parliamentary_constituency": "Erith and Thamesmead" }, "geometry": { "type": "Point", "coordinates": [ 0.1586213, 51.4913677 ] } },
{ "type": "Feature", "properties": { "name": "Hayes - St Edmund, Hillingdon Foodbank", "slug": "hayes-st-edmund", "address": "St Edmund’s Church\r\nEdmunds Close\r\nHayes\r\nUB4 0HA", "url": "https://www.givefood.org.uk/needs/at/hillingdon/hayes-st-edmund/", "network": "Trussell", "email": "hillingdonfoodbank@kingsborough.org.uk", "telephone": "01895252224", "foodbank": "Hillingdon", "foodbank_slug": "hillingdon", "foodbank_url": "https://www.givefood.org.uk/needs/at/hillingdon/", "parliamentary_constituency": "Hayes and Harlington" }, "geometry": { "type": "Point", "coordinates": [ -0.399481, 51.523057 ] } },
{ "type": "Feature", "properties": { "name": "Trinity Baptist Church, Bexley Foodbank", "slug": "trinity-baptist-church", "address": "Broadway\r\nBexleyheath\r\nDA6 7AY", "url": "https://www.givefood.org.uk/needs/at/bexley/trinity-baptist-church/", "network": "Trussell", "email": "info@bexley.foodbank.org.uk", "telephone": "07385921627", "foodbank": "Bexley", "foodbank_slug": "bexley", "foodbank_url": "https://www.givefood.org.uk/needs/at/bexley/", "parliamentary_constituency": "Bexleyheath and Crayford" }, "geometry": { "type": "Point", "coordinates": [ 0.1391492, 51.4574187 ] } },
{ "type": "Feature", "properties": { "name": "Whitton, Richmond Foodbank", "slug": "whitton", "address": "Whitton Community Centre\r\nPercy Road\r\nTwickenham\r\nMiddx\r\nTW2 6JL", "url": "https://www.givefood.org.uk/needs/at/richmond/whitton/", "network": "Trussell", "email": "foodbank@vineyardcommunity.org", "telephone": "07919075772", "foodbank": "Richmond", "foodbank_slug": "richmond", "foodbank_url": "https://www.givefood.org.uk/needs/at/richmond/", "parliamentary_constituency": "Twickenham" }, "geometry": { "type": "Point", "coordinates": [ -0.3644047, 51.4439703 ] } },
{ "type": "Feature", "properties": { "name": "Camberwell, Salvation Army", "slug": "camberwell", "address": "105 Lomond Grove \nCamberwell \r\nSE5 7HG", "url": "https://www.givefood.org.uk/needs/at/salvation-army/camberwell/", "network": "Independent", "email": "camberwell@salvationarmy.org.uk", "telephone": "02077085465", "foodbank": "Salvation Army", "foodbank_slug": "salvation-army", "foodbank_url": "https://www.givefood.org.uk/needs/at/salvation-army/", "parliamentary_constituency": "Vauxhall and Camberwell Green" }, "geometry": { "type": "Point", "coordinates": [ -0.091207, 51.476756 ] } },
{ "type": "Feature", "properties": { "name": "Catford, Lewisham Foodbank", "slug": "catford", "address": "Salvation Army Catford\r\n23 - 25 Brownhill Road\r\nSE6 2HE", "url": "https://www.givefood.org.uk/needs/at/lewisham/catford/", "network": "Trussell", "email": "info@lewisham.foodbank.org.uk", "telephone": "07938071854", "foodbank": "Lewisham", "foodbank_slug": "lewisham", "foodbank_url": "https://www.givefood.org.uk/needs/at/lewisham/", "parliamentary_constituency": "Lewisham East" }, "geometry": { "type": "Point", "coordinates": [ -0.017136, 51.4460211 ] } },
{ "type": "Feature", "properties": { "name": "St. John the Divine, Wimbledon Foodbank", "slug": "st-john-the-divine", "address": "High Path\r\nLondon\r\nSW19 2JY", "url": "https://www.givefood.org.uk/needs/at/wimbledon/st-john-the-divine/", "network": "Trussell", "email": "wimbledonfoodbank@gmail.com", "telephone": "02085440018", "foodbank": "Wimbledon", "foodbank_slug": "wimbledon", "foodbank_url": "https://www.givefood.org.uk/needs/at/wimbledon/", "parliamentary_constituency": "Wimbledon" }, "geometry": { "type": "Point", "coordinates": [ -0.1917954, 51.4136915 ] } },
{ "type": "Feature", "properties": { "name": "Peckham Methodist Church, Southwark Foodbank", "slug": "peckham-methodist-church", "address": "2 Wood's Road\r\nLondon\r\nSE15 2PX", "url": "https://www.givefood.org.uk/needs/at/southwark/peckham-methodist-church/", "network": "Trussell", "email": "foodbank.support@pecan.org.uk", "telephone": "02077320007", "foodbank": "Southwark", "foodbank_slug": "southwark", "foodbank_url": "https://www.givefood.org.uk/needs/at/southwark/", "parliamentary_constituency": "Peckham" }, "geometry": { "type": "Point", "coordinates": [ -0.0624405, 51.4729159 ] } },
{ "type": "Feature", "properties": { "name": "Bermondsey Methodist Church, Southwark Foodbank", "slug": "bermondsey-methodist-church", "address": "Bermondsey Street\r\nSE1 3UJ", "url": "https://www.givefood.org.uk/needs/at/southwark/bermondsey-methodist-church/", "network": "Trussell", "email": "foodbank.support@pecan.org.uk", "telephone": "02077320007", "foodbank": "Southwark", "foodbank_slug": "southwark", "foodbank_url": "https://www.givefood.org.uk/needs/at/southwark/", "parliamentary_constituency": "Bermondsey and Old Southwark" }, "geometry": { "type": "Point", "coordinates": [ -0.0816664, 51.4976862 ] } },
{ "type": "Feature", "properties": { "name": "Good Shepherd, St Paul's (Hounslow) Foodbank", "slug": "good-shepherd", "address": "Church of the Good Shepherd\r\nCranford\r\nHounslow\r\nTW4 6HJ", "url": "https://www.givefood.org.uk/needs/at/st-pauls-hounslow/good-shepherd/", "network": "IFAN", "email": "foodbank@hwparish.org.uk", "telephone": "02085815537", "foodbank": "St Paul's (Hounslow)", "foodbank_slug": "st-pauls-hounslow", "foodbank_url": "https://www.givefood.org.uk/needs/at/st-pauls-hounslow/", "parliamentary_constituency": "Feltham and Heston" }, "geometry": { "type": "Point", "coordinates": [ -0.4034656, 51.4723838 ] } },
{ "type": "Feature", "properties": { "name": "Kidbrooke, Greenwich Foodbank", "slug": "kidbrooke", "address": "St James' Church Hall\n62 Kidbrooke Park Road\nLondon\r\nSE3 0DU", "url": "https://www.givefood.org.uk/needs/at/greenwich/kidbrooke/", "network": "Trussell", "email": "info@greenwich.foodbank.org.uk", "telephone": null, "foodbank": "Greenwich", "foodbank_slug": "greenwich", "foodbank_url": "https://www.givefood.org.uk/needs/at/greenwich/", "parliamentary_constituency": "Greenwich and Woolwich" }, "geometry": { "type": "Point", "coordinates": [ 0.0237675, 51.4698968 ] } },
{ "type": "Feature", "properties": { "name": "City Hope Church, Southwark Foodbank", "slug": "city-hope-church", "address": "121 Drummond Road\r\nLondon\r\nSE16 2JY", "url": "https://www.givefood.org.uk/needs/at/southwark/city-hope-church/", "network": "Trussell", "email": "foodbank.support@pecan.org.uk", "telephone": "02077320007", "foodbank": "Southwark", "foodbank_slug": "southwark", "foodbank_url": "https://www.givefood.org.uk/needs/at/southwark/", "parliamentary_constituency": "Bermondsey and Old Southwark" }, "geometry": { "type": "Point", "coordinates": [ -0.0604298, 51.4940108 ] } },
{ "type": "Feature", "properties": { "name": "Crown Church at The Living Room, Yiewsley & West Drayton Foodbank", "slug": "crown-church-at-the-living-room", "address": "The Living Room\r\nHigh Street\r\nCowley\r\nUxbridge\r\nMiddlesex\r\nUB8 2DZ", "url": "https://www.givefood.org.uk/needs/at/yiewsley-west-drayton/crown-church-at-the-living-room/", "network": "Trussell", "email": "info@yiewsleywestdrayton.foodbank.org.uk", "telephone": "01895233466", "foodbank": "Yiewsley & West Drayton", "foodbank_slug": "yiewsley-west-drayton", "foodbank_url": "https://www.givefood.org.uk/needs/at/yiewsley-west-drayton/", "parliamentary_constituency": "Uxbridge and South Ruislip" }, "geometry": { "type": "Point", "coordinates": [ -0.4813055, 51.5282973 ] } },
{ "type": "Feature", "properties": { "name": "Mitcham, Salvation Army", "slug": "mitcham", "address": "Postal Address: c/o St Mark's New Church Hall, 28 St Mark's Road \r\nMitcham\r\nCR4 2LF", "url": "https://www.givefood.org.uk/needs/at/salvation-army/mitcham/", "network": "Independent", "email": "mark.scott@salvationarmy.org.uk", "telephone": "02086481864", "foodbank": "Salvation Army", "foodbank_slug": "salvation-army", "foodbank_url": "https://www.givefood.org.uk/needs/at/salvation-army/", "parliamentary_constituency": "Mitcham and Morden" }, "geometry": { "type": "Point", "coordinates": [ -0.160475, 51.406606 ] } },
{ "type": "Feature", "properties": { "name": "Woodgrange Baptist Church, Churches Foodbank", "slug": "woodgrange-baptist-church", "address": "345 Romford Road\r\nE7 8AA", "url": "https://www.givefood.org.uk/needs/at/churches/woodgrange-baptist-church/", "network": "IFAN", "email": "rev.ivo.anderson@gmail.com", "telephone": "02085559880", "foodbank": "Churches", "foodbank_slug": "churches", "foodbank_url": "https://www.givefood.org.uk/needs/at/churches/", "parliamentary_constituency": "Stratford and Bow" }, "geometry": { "type": "Point", "coordinates": [ 0.0285214, 51.5468726 ] } },
{ "type": "Feature", "properties": { "name": "Penge, Bromley Borough Foodbank", "slug": "penge", "address": "The Salvation Army\r\n172-176 Maple Rd\r\nLondon\r\nSE20 8JB", "url": "https://www.givefood.org.uk/needs/at/bromley-borough/penge/", "network": "Trussell", "email": "info@bromleyborough.foodbank.org.uk", "telephone": "08009202324", "foodbank": "Bromley Borough", "foodbank_slug": "bromley-borough", "foodbank_url": "https://www.givefood.org.uk/needs/at/bromley-borough/", "parliamentary_constituency": "Beckenham and Penge" }, "geometry": { "type": "Point", "coordinates": [ -0.0547709, 51.415004 ] } },
{ "type": "Feature", "properties": { "name": "New Community Church, Bexley Foodbank", "slug": "new-community-church", "address": "24 Station Road\r\nSidcup\r\nDA15 7DU", "url": "https://www.givefood.org.uk/needs/at/bexley/new-community-church/", "network": "Trussell", "email": "info@bexley.foodbank.org.uk", "telephone": "02083000333", "foodbank": "Bexley", "foodbank_slug": "bexley", "foodbank_url": "https://www.givefood.org.uk/needs/at/bexley/", "parliamentary_constituency": "Old Bexley and Sidcup" }, "geometry": { "type": "Point", "coordinates": [ 0.1018634, 51.4281766 ] } },
{ "type": "Feature", "properties": { "name": "Stepney, Salvation Army", "slug": "stepney", "address": "Office at Booth House, 175 Whitechapel Road, \nLondon\r\nE1 1DN", "url": "https://www.givefood.org.uk/needs/at/salvation-army/stepney/", "network": "Independent", "email": "Stepney@salvationarmy.org.uk", "telephone": "02073922124", "foodbank": "Salvation Army", "foodbank_slug": "salvation-army", "foodbank_url": "https://www.givefood.org.uk/needs/at/salvation-army/", "parliamentary_constituency": "Bethnal Green and Stepney" }, "geometry": { "type": "Point", "coordinates": [ -0.063646, 51.518515 ] } },
{ "type": "Feature", "properties": { "name": "Greenford , Salvation Army", "slug": "greenford", "address": "Costons Lane \nGreenford \r\nUB6 8QT", "url": "https://www.givefood.org.uk/needs/at/salvation-army/greenford/", "network": "Independent", "email": "kath.davison@salvationarmy.org.uk", "telephone": "02085758380", "foodbank": "Salvation Army", "foodbank_slug": "salvation-army", "foodbank_url": "https://www.givefood.org.uk/needs/at/salvation-army/", "parliamentary_constituency": "Ealing North" }, "geometry": { "type": "Point", "coordinates": [ -0.348798, 51.532255 ] } },
{ "type": "Feature", "properties": { "name": "Perivale, Ealing Foodbank", "slug": "perivale", "address": "St Nicholas Church\r\nFederal Road\r\nPerivale\r\nUB6 7AP", "url": "https://www.givefood.org.uk/needs/at/ealing/perivale/", "network": "Trussell", "email": "info@ealing.foodbank.org.uk", "telephone": "02088409428", "foodbank": "Ealing", "foodbank_slug": "ealing", "foodbank_url": "https://www.givefood.org.uk/needs/at/ealing/", "parliamentary_constituency": "Ealing North" }, "geometry": { "type": "Point", "coordinates": [ -0.3097596, 51.536109 ] } },
{ "type": "Feature", "properties": { "name": "Ham Youth Centre, Richmond Foodbank", "slug": "ham-youth-centre", "address": "Ham Close\r\nRichmond\r\nTW10 7PL", "url": "https://www.givefood.org.uk/needs/at/richmond/ham-youth-centre/", "network": "Trussell", "email": "foodbank@vineyardcommunity.org", "telephone": "02082880916", "foodbank": "Richmond", "foodbank_slug": "richmond", "foodbank_url": "https://www.givefood.org.uk/needs/at/richmond/", "parliamentary_constituency": "Richmond Park" }, "geometry": { "type": "Point", "coordinates": [ -0.3150699, 51.438222 ] } },
{ "type": "Feature", "properties": { "name": "Elim Christian Centre, Barking Foodbank", "slug": "elim-christian-centre", "address": "Elim Christian Centre\r\n93 Axe Street\r\nBarking\r\nIG11 7LZ", "url": "https://www.givefood.org.uk/needs/at/barking/elim-christian-centre/", "network": "Trussell", "email": "barkingfoodbank@gmail.com", "telephone": "02086170660", "foodbank": "Barking", "foodbank_slug": "barking", "foodbank_url": "https://www.givefood.org.uk/needs/at/barking/", "parliamentary_constituency": "Barking" }, "geometry": { "type": "Point", "coordinates": [ 0.0805663, 51.536153 ] } },
{ "type": "Feature", "properties": { "name": "Uxbridge Community Centre, Hillingdon Foodbank", "slug": "uxbridge-community-centre", "address": "Community Centre\r\n32b The Greenway\r\nUxbridge\r\nUB8 2PJ", "url": "https://www.givefood.org.uk/needs/at/hillingdon/uxbridge-community-centre/", "network": "Trussell", "email": "hillingdonfoodbank@kingsborough.org.uk", "telephone": "07859710747", "foodbank": "Hillingdon", "foodbank_slug": "hillingdon", "foodbank_url": "https://www.givefood.org.uk/needs/at/hillingdon/", "parliamentary_constituency": "Uxbridge and South Ruislip" }, "geometry": { "type": "Point", "coordinates": [ -0.4793111, 51.5366714 ] } },
{ "type": "Feature", "properties": { "name": "Rehoboth Church, Newham Foodbank", "slug": "rehoboth-church", "address": "478 Barking Road\r\nPlaistow\r\nLondon\r\nE13 8QB", "url": "https://www.givefood.org.uk/needs/at/newham/rehoboth-church/", "network": "IFAN", "email": "info@newhamfoodbank.org.uk", "telephone": "07951612405", "foodbank": "Newham", "foodbank_slug": "newham", "foodbank_url": "https://www.givefood.org.uk/needs/at/newham/", "parliamentary_constituency": "West Ham and Beckton" }, "geometry": { "type": "Point", "coordinates": [ 0.0259284, 51.5237275 ] } },
{ "type": "Feature", "properties": { "name": "Royal Docks Learning & Activity Centre, Newham Foodbank", "slug": "royal-docks-learning-activity-centre", "address": "Albert Road\r\nLondon\r\nE16 2JB", "url": "https://www.givefood.org.uk/needs/at/newham/royal-docks-learning-activity-centre/", "network": "IFAN", "email": "info@newhamfoodbank.org.uk", "telephone": "02074761666", "foodbank": "Newham", "foodbank_slug": "newham", "foodbank_url": "https://www.givefood.org.uk/needs/at/newham/", "parliamentary_constituency": "West Ham and Beckton" }, "geometry": { "type": "Point", "coordinates": [ 0.058305, 51.5008 ] } },
{ "type": "Feature", "properties": { "name": "St Michael's Church, Wandsworth Foodbank", "slug": "st-michaels-church", "address": "71 Wimbledon Park Road\r\nSouthfields\r\nSW18 5TT", "url": "https://www.givefood.org.uk/needs/at/wandsworth/st-michaels-church/", "network": "Trussell", "email": "info@wandsworth.foodbank.org.uk", "telephone": "02073269428", "foodbank": "Wandsworth", "foodbank_slug": "wandsworth", "foodbank_url": "https://www.givefood.org.uk/needs/at/wandsworth/", "parliamentary_constituency": "Putney" }, "geometry": { "type": "Point", "coordinates": [ -0.2021724, 51.4497351 ] } },
{ "type": "Feature", "properties": { "name": "Manor Park Centre, Newham Foodbank", "slug": "manor-park-centre", "address": "Manor Park Christian centre\r\n454 High Street North\r\nE12 6RH", "url": "https://www.givefood.org.uk/needs/at/newham/manor-park-centre/", "network": "IFAN", "email": "info@newhamfoodbank.org.uk", "telephone": "02074743060", "foodbank": "Newham", "foodbank_slug": "newham", "foodbank_url": "https://www.givefood.org.uk/needs/at/newham/", "parliamentary_constituency": "East Ham" }, "geometry": { "type": "Point", "coordinates": [ 0.049247, 51.545906 ] } },
{ "type": "Feature", "properties": { "name": "WGMI Centre, Newham Foodbank", "slug": "wgmi-centre", "address": "738 Barking Road\r\nLondon\r\nE13 9LB", "url": "https://www.givefood.org.uk/needs/at/newham/wgmi-centre/", "network": "IFAN", "email": "info@newhamfoodbank.org.uk", "telephone": "07944101267", "foodbank": "Newham", "foodbank_slug": "newham", "foodbank_url": "https://www.givefood.org.uk/needs/at/newham/", "parliamentary_constituency": "West Ham and Beckton" }, "geometry": { "type": "Point", "coordinates": [ 0.035145, 51.52946 ] } },
{ "type": "Feature", "properties": { "name": "Hounslow, Salvation Army", "slug": "hounslow", "address": "114 Hanworth Road \r\nHounslow\r\nTW3 1UF", "url": "https://www.givefood.org.uk/needs/at/salvation-army/hounslow/", "network": "Independent", "email": "david.walker@salvationarmy.org.uk", "telephone": "02087513327", "foodbank": "Salvation Army", "foodbank_slug": "salvation-army", "foodbank_url": "https://www.givefood.org.uk/needs/at/salvation-army/", "parliamentary_constituency": "Brentford and Isleworth" }, "geometry": { "type": "Point", "coordinates": [ -0.360191, 51.468336 ] } },
{ "type": "Feature", "properties": { "name": "Barking, Salvation Army", "slug": "barking", "address": "240 Ripple Road \nBarking \r\nIG11 7DJ", "url": "https://www.givefood.org.uk/needs/at/salvation-army/barking/", "network": "Independent", "email": "info@salvationarmy.org.uk", "telephone": "02085942964", "foodbank": "Salvation Army", "foodbank_slug": "salvation-army", "foodbank_url": "https://www.givefood.org.uk/needs/at/salvation-army/", "parliamentary_constituency": "Barking" }, "geometry": { "type": "Point", "coordinates": [ 0.0864, 51.534207 ] } },
{ "type": "Feature", "properties": { "name": "Ilford, Salvation Army", "slug": "ilford", "address": "15 Clements Road \nIlford \r\nIG1 1BH", "url": "https://www.givefood.org.uk/needs/at/salvation-army/ilford/", "network": "Independent", "email": "ilford@salvationarmy.org.uk", "telephone": "02084782961", "foodbank": "Salvation Army", "foodbank_slug": "salvation-army", "foodbank_url": "https://www.givefood.org.uk/needs/at/salvation-army/", "parliamentary_constituency": "Ilford South" }, "geometry": { "type": "Point", "coordinates": [ 0.072335, 51.557873 ] } },
{ "type": "Feature", "properties": { "name": "Sundays, Salvation Army", "slug": "sundays", "address": "124 Welling High Street \nWelling \r\nDA16 1TJ", "url": "https://www.givefood.org.uk/needs/at/salvation-army/sundays/", "network": "Independent", "email": "katy.shubotham@salvationarmy.org.uk", "telephone": "02083315701", "foodbank": "Salvation Army", "foodbank_slug": "salvation-army", "foodbank_url": "https://www.givefood.org.uk/needs/at/salvation-army/", "parliamentary_constituency": "Old Bexley and Sidcup" }, "geometry": { "type": "Point", "coordinates": [ 0.108608, 51.462182 ] } },
{ "type": "Feature", "properties": { "name": "St Paul's Church, Spring Community Hub Foodbank", "slug": "st-pauls-church", "address": "4 Lorrimore Square\r\nSE17 3QU", "url": "https://www.givefood.org.uk/needs/at/spring-community-hub/st-pauls-church/", "network": "IFAN", "email": "foodbank@springcommunityhub.org.uk", "telephone": "07901617189", "foodbank": "Spring Community Hub", "foodbank_slug": "spring-community-hub", "foodbank_url": "https://www.givefood.org.uk/needs/at/spring-community-hub/", "parliamentary_constituency": "Vauxhall and Camberwell Green" }, "geometry": { "type": "Point", "coordinates": [ -0.1007567, 51.4850342 ] } },
{ "type": "Feature", "properties": { "name": "Brickfield Community Centre, Hounslow Community FoodBox Foodbank", "slug": "brickfield-community-centre", "address": "1 Hawthorn Road\r\nBrentford\r\nTW8 8NT", "url": "https://www.givefood.org.uk/needs/at/hounslow-community-foodbox/brickfield-community-centre/", "network": "Independent", "email": "info@hounslowfoodbox.org.uk", "telephone": "07719891787", "foodbank": "Hounslow Community FoodBox", "foodbank_slug": "hounslow-community-foodbox", "foodbank_url": "https://www.givefood.org.uk/needs/at/hounslow-community-foodbox/", "parliamentary_constituency": "Brentford and Isleworth" }, "geometry": { "type": "Point", "coordinates": [ -0.3192031, 51.4807012 ] } },
{ "type": "Feature", "properties": { "name": "Clapton with Stoke Newington and Dalston Plants, Salvation Army", "slug": "clapton-with-stoke-newington-and-dalston-plants", "address": "122-124 Lower Clapton Road\nLondon\r\nE5 0QR", "url": "https://www.givefood.org.uk/needs/at/salvation-army/clapton-with-stoke-newington-and-dalston-plants/", "network": "Independent", "email": "clapton.corps@salvationarmy.org.uk", "telephone": "02089853902", "foodbank": "Salvation Army", "foodbank_slug": "salvation-army", "foodbank_url": "https://www.givefood.org.uk/needs/at/salvation-army/", "parliamentary_constituency": "Hackney North and Stoke Newington" }, "geometry": { "type": "Point", "coordinates": [ -0.053324, 51.553712 ] } },
{ "type": "Feature", "properties": { "name": "Sutton Salvation Army, Sutton Foodbank", "slug": "sutton-salvation-army", "address": "44 Benhill Avenue\r\nSutton\r\nSM1 4DD", "url": "https://www.givefood.org.uk/needs/at/sutton/sutton-salvation-army/", "network": "Trussell", "email": "admin@suttoncommunityworks.org", "telephone": "07525838640", "foodbank": "Sutton", "foodbank_slug": "sutton", "foodbank_url": "https://www.givefood.org.uk/needs/at/sutton/", "parliamentary_constituency": "Sutton and Cheam" }, "geometry": { "type": "Point", "coordinates": [ -0.1924413, 51.3665859 ] } },
{ "type": "Feature", "properties": { "name": "Chelsea, Salvation Army", "slug": "chelsea", "address": "11 Blantyre Street \nChelsea \r\nSW10 0DT", "url": "https://www.givefood.org.uk/needs/at/salvation-army/chelsea/", "network": "Independent", "email": "chelsea@salvationarmy.org.uk", "telephone": "02073527557", "foodbank": "Salvation Army", "foodbank_slug": "salvation-army", "foodbank_url": "https://www.givefood.org.uk/needs/at/salvation-army/", "parliamentary_constituency": "Chelsea and Fulham" }, "geometry": { "type": "Point", "coordinates": [ -0.177927, 51.481814 ] } },
{ "type": "Feature", "properties": { "name": "Rayners Lane Baptist Church, Harrow Foodbank", "slug": "rayners-lane-baptist-church", "address": "139 Imperial Drive\r\nNorth Harrow\r\nHA2 7HW", "url": "https://www.givefood.org.uk/needs/at/harrow/rayners-lane-baptist-church/", "network": "Trussell", "email": "info@harrow.foodbank.org.uk", "telephone": "02084167344", "foodbank": "Harrow", "foodbank_slug": "harrow", "foodbank_url": "https://www.givefood.org.uk/needs/at/harrow/", "parliamentary_constituency": "Harrow West" }, "geometry": { "type": "Point", "coordinates": [ -0.367364, 51.5781583 ] } },
{ "type": "Feature", "properties": { "name": "Wimbledon, Salvation Army", "slug": "wimbledon", "address": "109 Kingston Road \nWimbledon \r\nSW19 1LT", "url": "https://www.givefood.org.uk/needs/at/salvation-army/wimbledon/", "network": "Independent", "email": "annette.wicks@salvationarmy.org.uk", "telephone": "02085424197", "foodbank": "Salvation Army", "foodbank_slug": "salvation-army", "foodbank_url": "https://www.givefood.org.uk/needs/at/salvation-army/", "parliamentary_constituency": "Wimbledon" }, "geometry": { "type": "Point", "coordinates": [ -0.199196, 51.415417 ] } },
{ "type": "Feature", "properties": { "name": "Edmonton, Salvation Army", "slug": "edmonton", "address": "339 Fore Street \nEdmonton \r\nN9 0NU", "url": "https://www.givefood.org.uk/needs/at/salvation-army/edmonton/", "network": "Independent", "email": "edmonton@salvationarmy.org.uk", "telephone": "02083456687", "foodbank": "Salvation Army", "foodbank_slug": "salvation-army", "foodbank_url": "https://www.givefood.org.uk/needs/at/salvation-army/", "parliamentary_constituency": "Edmonton and Winchmore Hill" }, "geometry": { "type": "Point", "coordinates": [ -0.06217, 51.621123 ] } },
{ "type": "Feature", "properties": { "name": "Poplar, Salvation Army", "slug": "poplar", "address": "Kerbey Street \nPoplar \r\nE14 6AJ", "url": "https://www.givefood.org.uk/needs/at/salvation-army/poplar/", "network": "Independent", "email": "poplar@salvationarmy.org.uk", "telephone": "02079879405", "foodbank": "Salvation Army", "foodbank_slug": "salvation-army", "foodbank_url": "https://www.givefood.org.uk/needs/at/salvation-army/", "parliamentary_constituency": "Poplar and Limehouse" }, "geometry": { "type": "Point", "coordinates": [ -0.015815, 51.511673 ] } },
{ "type": "Feature", "properties": { "name": "Raynes Park, Salvation Army", "slug": "raynes-park", "address": "Office: 496 Kingston Road Raynes Park \nRaynes Park \r\nSW20 8DX", "url": "https://www.givefood.org.uk/needs/at/salvation-army/raynes-park/", "network": "Independent", "email": "office@raynesparkcommunitychurch.com", "telephone": "02087150106", "foodbank": "Salvation Army", "foodbank_slug": "salvation-army", "foodbank_url": "https://www.givefood.org.uk/needs/at/salvation-army/", "parliamentary_constituency": "Wimbledon" }, "geometry": { "type": "Point", "coordinates": [ -0.21966, 51.410506 ] } },
{ "type": "Feature", "properties": { "name": "Nunhead, Salvation Army", "slug": "nunhead", "address": "Nunhead Green\nNunhead\r\nSE15 3QH", "url": "https://www.givefood.org.uk/needs/at/salvation-army/nunhead/", "network": "Independent", "email": "nunhead@salvationarmy.org.uk", "telephone": "02076397292", "foodbank": "Salvation Army", "foodbank_slug": "salvation-army", "foodbank_url": "https://www.givefood.org.uk/needs/at/salvation-army/", "parliamentary_constituency": "Peckham" }, "geometry": { "type": "Point", "coordinates": [ -0.063453, 51.465276 ] } },
{ "type": "Feature", "properties": { "name": "South London, Salvation Army", "slug": "south-london", "address": "1 Tiverton Street \nLondon \r\nSE1 6NT", "url": "https://www.givefood.org.uk/needs/at/salvation-army/south-london/", "network": "Independent", "email": "southlondon@salvationarmy.org.uk", "telephone": "02038720080", "foodbank": "Salvation Army", "foodbank_slug": "salvation-army", "foodbank_url": "https://www.givefood.org.uk/needs/at/salvation-army/", "parliamentary_constituency": "Bermondsey and Old Southwark" }, "geometry": { "type": "Point", "coordinates": [ -0.098949, 51.49663 ] } },
{ "type": "Feature", "properties": { "name": "Balham, Salvation Army", "slug": "balham", "address": "38 Balham High Road \nBalham \r\nSW12 9AH", "url": "https://www.givefood.org.uk/needs/at/salvation-army/balham/", "network": "Independent", "email": "Balham@salvationarmy.org.uk", "telephone": "02086753809", "foodbank": "Salvation Army", "foodbank_slug": "salvation-army", "foodbank_url": "https://www.givefood.org.uk/needs/at/salvation-army/", "parliamentary_constituency": "Battersea" }, "geometry": { "type": "Point", "coordinates": [ -0.148807, 51.447977 ] } },
{ "type": "Feature", "properties": { "name": "Chalk Farm, Salvation Army", "slug": "chalk-farm", "address": "10 - 16 Haverstock Hill \nChalk Farm \r\nNW3 2BL", "url": "https://www.givefood.org.uk/needs/at/salvation-army/chalk-farm/", "network": "Independent", "email": "chalk.farm.corps@salvationarmy.org.uk", "telephone": "02074851605", "foodbank": "Salvation Army", "foodbank_slug": "salvation-army", "foodbank_url": "https://www.givefood.org.uk/needs/at/salvation-army/", "parliamentary_constituency": "Holborn and St Pancras" }, "geometry": { "type": "Point", "coordinates": [ -0.153152, 51.544331 ] } },
{ "type": "Feature", "properties": { "name": "Cambridge Heath , Salvation Army", "slug": "cambridge-heath", "address": "70 Mare Street \nHackney \r\nE8 4RT", "url": "https://www.givefood.org.uk/needs/at/salvation-army/cambridge-heath/", "network": "Independent", "email": "cambridge.heath@salvationarmy.org.uk", "telephone": "02089854410", "foodbank": "Salvation Army", "foodbank_slug": "salvation-army", "foodbank_url": "https://www.givefood.org.uk/needs/at/salvation-army/", "parliamentary_constituency": "Hackney South and Shoreditch" }, "geometry": { "type": "Point", "coordinates": [ -0.056915, 51.535787 ] } },
{ "type": "Feature", "properties": { "name": "Walthamstow, Salvation Army", "slug": "walthamstow", "address": "434 Forest Road \nWalthamstow \r\nE17 4PY", "url": "https://www.givefood.org.uk/needs/at/salvation-army/walthamstow/", "network": "Independent", "email": "walthamstow@salvationarmy.org.uk", "telephone": "02085213029", "foodbank": "Salvation Army", "foodbank_slug": "salvation-army", "foodbank_url": "https://www.givefood.org.uk/needs/at/salvation-army/", "parliamentary_constituency": "Walthamstow" }, "geometry": { "type": "Point", "coordinates": [ -0.0210373, 51.5906492 ] } },
{ "type": "Feature", "properties": { "name": "Wood Green, Salvation Army", "slug": "wood-green", "address": "24 Lymington Avenue \nLondon\r\nN22 6JA", "url": "https://www.givefood.org.uk/needs/at/salvation-army/wood-green/", "network": "Independent", "email": "paula.knight@salvationarmy.org.uk", "telephone": "02088889466", "foodbank": "Salvation Army", "foodbank_slug": "salvation-army", "foodbank_url": "https://www.givefood.org.uk/needs/at/salvation-army/", "parliamentary_constituency": "Southgate and Wood Green" }, "geometry": { "type": "Point", "coordinates": [ -0.105882, 51.593789 ] } },
{ "type": "Feature", "properties": { "name": "Croydon Citadel, Salvation Army", "slug": "croydon-citadel", "address": "Booth Road \nCroydon \r\nCR0 1XY", "url": "https://www.givefood.org.uk/needs/at/salvation-army/croydon-citadel/", "network": "Independent", "email": "croydon@salvationarmy.org.uk", "telephone": "02086809924", "foodbank": "Salvation Army", "foodbank_slug": "salvation-army", "foodbank_url": "https://www.givefood.org.uk/needs/at/salvation-army/", "parliamentary_constituency": "Croydon West" }, "geometry": { "type": "Point", "coordinates": [ -0.10724, 51.373582 ] } },
{ "type": "Feature", "properties": { "name": "Regent Hall, Salvation Army", "slug": "regent-hall", "address": "275 Oxford Street \nRegent Hall \r\nW1C 2DJ", "url": "https://www.givefood.org.uk/needs/at/salvation-army/regent-hall/", "network": "Independent", "email": "regent.hall@salvationarmy.org.uk", "telephone": "02076295424", "foodbank": "Salvation Army", "foodbank_slug": "salvation-army", "foodbank_url": "https://www.givefood.org.uk/needs/at/salvation-army/", "parliamentary_constituency": "Cities of London and Westminster" }, "geometry": { "type": "Point", "coordinates": [ -0.143215, 51.514847 ] } },
{ "type": "Feature", "properties": { "name": "Leytonstone, Salvation Army", "slug": "leytonstone", "address": "Southwell Grove Road \nLeytonstone \r\nE11 4PP", "url": "https://www.givefood.org.uk/needs/at/salvation-army/leytonstone/", "network": "Independent", "email": "leytonstone@salvationarmy.org.uk", "telephone": "02085587290", "foodbank": "Salvation Army", "foodbank_slug": "salvation-army", "foodbank_url": "https://www.givefood.org.uk/needs/at/salvation-army/", "parliamentary_constituency": "Leyton and Wanstead" }, "geometry": { "type": "Point", "coordinates": [ 0.00711, 51.561084 ] } },
{ "type": "Feature", "properties": { "name": "Upper Norwood & Crystal Palace Community Church, Salvation Army", "slug": "upper-norwood-crystal-palace-community-church", "address": "58 Westow Street \r\nUpper Norwood\r\nSE19 3AF", "url": "https://www.givefood.org.uk/needs/at/salvation-army/upper-norwood-crystal-palace-community-church/", "network": "Independent", "email": "Philip.Layton@salvationarmy.org.uk", "telephone": "02087710979", "foodbank": "Salvation Army", "foodbank_slug": "salvation-army", "foodbank_url": "https://www.givefood.org.uk/needs/at/salvation-army/", "parliamentary_constituency": "Streatham and Croydon North" }, "geometry": { "type": "Point", "coordinates": [ -0.082073, 51.417426 ] } },
{ "type": "Feature", "properties": { "name": "Harold Hill, Salvation Army", "slug": "harold-hill", "address": "Petersfield Avenue \nHarold Hill \r\nRM3 9PP", "url": "https://www.givefood.org.uk/needs/at/salvation-army/harold-hill/", "network": "Independent", "email": "philgoldsmith@btinternet.com", "telephone": "01708379458", "foodbank": "Salvation Army", "foodbank_slug": "salvation-army", "foodbank_url": "https://www.givefood.org.uk/needs/at/salvation-army/", "parliamentary_constituency": "Hornchurch and Upminster" }, "geometry": { "type": "Point", "coordinates": [ 0.236266, 51.604092 ] } },
{ "type": "Feature", "properties": { "name": "Penge, Salvation Army", "slug": "penge", "address": "174 Maple Road \nPenge \r\nSE20 8JB", "url": "https://www.givefood.org.uk/needs/at/salvation-army/penge/", "network": "Independent", "email": "penge.corps@salvationarmy.org.uk", "telephone": "02086597321", "foodbank": "Salvation Army", "foodbank_slug": "salvation-army", "foodbank_url": "https://www.givefood.org.uk/needs/at/salvation-army/", "parliamentary_constituency": "Beckenham and Penge" }, "geometry": { "type": "Point", "coordinates": [ -0.05513, 51.414509 ] } },
{ "type": "Feature", "properties": { "name": "Hendon, Salvation Army", "slug": "hendon", "address": "1-5 Brampton Grove \nHendon \r\nNW4 4AE", "url": "https://www.givefood.org.uk/needs/at/salvation-army/hendon/", "network": "Independent", "email": "hendon@salvationarmy.org.uk", "telephone": "02082028343", "foodbank": "Salvation Army", "foodbank_slug": "salvation-army", "foodbank_url": "https://www.givefood.org.uk/needs/at/salvation-army/", "parliamentary_constituency": "Hendon" }, "geometry": { "type": "Point", "coordinates": [ -0.223569, 51.587311 ] } },
{ "type": "Feature", "properties": { "name": "Woodford, Salvation Army", "slug": "woodford", "address": "26 Daisy Road \nSouth Woodford \r\nE18 1EA", "url": "https://www.givefood.org.uk/needs/at/salvation-army/woodford/", "network": "Independent", "email": "woodford@salvationarmy.org.uk", "telephone": "02089894530", "foodbank": "Salvation Army", "foodbank_slug": "salvation-army", "foodbank_url": "https://www.givefood.org.uk/needs/at/salvation-army/", "parliamentary_constituency": "Leyton and Wanstead" }, "geometry": { "type": "Point", "coordinates": [ 0.029031, 51.591983 ] } },
{ "type": "Feature", "properties": { "name": "New Addington, Salvation Army", "slug": "new-addington", "address": "We do not currently have a building and are meeting via Zoom!\nNew Addington\r\nCR00ET", "url": "https://www.givefood.org.uk/needs/at/salvation-army/new-addington/", "network": "Independent", "email": "new.addington@salvationarmy.org.uk", "telephone": "02073674500", "foodbank": "Salvation Army", "foodbank_slug": "salvation-army", "foodbank_url": "https://www.givefood.org.uk/needs/at/salvation-army/", "parliamentary_constituency": "Croydon East" }, "geometry": { "type": "Point", "coordinates": [ -0.009447, 51.34117 ] } },
{ "type": "Feature", "properties": { "name": "Barking Riverside, Salvation Army", "slug": "barking-riverside", "address": "Minter Road \nBarking \r\nIG11 0FJ", "url": "https://www.givefood.org.uk/needs/at/salvation-army/barking-riverside/", "network": "Independent", "email": "rivergatechurch@hotmail.com", "telephone": "02073674500", "foodbank": "Salvation Army", "foodbank_slug": "salvation-army", "foodbank_url": "https://www.givefood.org.uk/needs/at/salvation-army/", "parliamentary_constituency": "Barking" }, "geometry": { "type": "Point", "coordinates": [ 0.108853, 51.520569 ] } },
{ "type": "Feature", "properties": { "name": "North London, Salvation Army", "slug": "north-london", "address": "66 New North Road \nLondon \r\nN1 6TG", "url": "https://www.givefood.org.uk/needs/at/salvation-army/north-london/", "network": "Independent", "email": "NorthLondon@salvationarmy.org.uk", "telephone": "02076017057", "foodbank": "Salvation Army", "foodbank_slug": "salvation-army", "foodbank_url": "https://www.givefood.org.uk/needs/at/salvation-army/", "parliamentary_constituency": "Hackney South and Shoreditch" }, "geometry": { "type": "Point", "coordinates": [ -0.0868001, 51.5327743 ] } },
{ "type": "Feature", "properties": { "name": "New Malden, Salvation Army", "slug": "new-malden", "address": "1a Cavendish Rd \nNew Malden \r\nKT3 6DE", "url": "https://www.givefood.org.uk/needs/at/salvation-army/new-malden/", "network": "Independent", "email": "new.malden@salvationarmy.org.uk", "telephone": "02089496407", "foodbank": "Salvation Army", "foodbank_slug": "salvation-army", "foodbank_url": "https://www.givefood.org.uk/needs/at/salvation-army/", "parliamentary_constituency": "Wimbledon" }, "geometry": { "type": "Point", "coordinates": [ -0.25357, 51.397959 ] } },
{ "type": "Feature", "properties": { "name": "St Mary Cray, Salvation Army", "slug": "st-mary-cray", "address": "Wellington Road \nOrpington \r\nBR5 4AQ", "url": "https://www.givefood.org.uk/needs/at/salvation-army/st-mary-cray/", "network": "Independent", "email": "st.mary.cray@salvationarmy.org.uk", "telephone": "01689834762", "foodbank": "Salvation Army", "foodbank_slug": "salvation-army", "foodbank_url": "https://www.givefood.org.uk/needs/at/salvation-army/", "parliamentary_constituency": "Orpington" }, "geometry": { "type": "Point", "coordinates": [ 0.1106, 51.384528 ] } },
{ "type": "Feature", "properties": { "name": "West Norwood, Salvation Army", "slug": "west-norwood", "address": "246 Norwood Road \nWest Norwood \r\nSE27 9AW", "url": "https://www.givefood.org.uk/needs/at/salvation-army/west-norwood/", "network": "Independent", "email": "west.norwood@salvationarmy.org.uk", "telephone": "02087612425", "foodbank": "Salvation Army", "foodbank_slug": "salvation-army", "foodbank_url": "https://www.givefood.org.uk/needs/at/salvation-army/", "parliamentary_constituency": "Dulwich and West Norwood" }, "geometry": { "type": "Point", "coordinates": [ -0.106026, 51.437861 ] } },
{ "type": "Feature", "properties": { "name": "Hillingdon, Salvation Army", "slug": "hillingdon", "address": "125 Uxbridge Road \nUxbridge \r\nUB10 0LQ", "url": "https://www.givefood.org.uk/needs/at/salvation-army/hillingdon/", "network": "Independent", "email": "hillingdon@salvationarmy.org.uk", "telephone": "01895271395", "foodbank": "Salvation Army", "foodbank_slug": "salvation-army", "foodbank_url": "https://www.givefood.org.uk/needs/at/salvation-army/", "parliamentary_constituency": "Uxbridge and South Ruislip" }, "geometry": { "type": "Point", "coordinates": [ -0.451464, 51.53272 ] } },
{ "type": "Feature", "properties": { "name": "Harlesden, Salvation Army", "slug": "harlesden", "address": "32 Manor Park Road \nHarlesden \r\nNW10 4JJ", "url": "https://www.givefood.org.uk/needs/at/salvation-army/harlesden/", "network": "Independent", "email": "harlesden@salvationarmy.org.uk", "telephone": "02089618033", "foodbank": "Salvation Army", "foodbank_slug": "salvation-army", "foodbank_url": "https://www.givefood.org.uk/needs/at/salvation-army/", "parliamentary_constituency": "Queen's Park and Maida Vale" }, "geometry": { "type": "Point", "coordinates": [ -0.24599, 51.536995 ] } },
{ "type": "Feature", "properties": { "name": "Feltham, Salvation Army", "slug": "feltham", "address": "Bedfont Lane \nFeltham \r\nTW14 9NH", "url": "https://www.givefood.org.uk/needs/at/salvation-army/feltham/", "network": "Independent", "email": "Ellie.Shakespeare@salvationarmy.org.uk", "telephone": "02088908195", "foodbank": "Salvation Army", "foodbank_slug": "salvation-army", "foodbank_url": "https://www.givefood.org.uk/needs/at/salvation-army/", "parliamentary_constituency": "Feltham and Heston" }, "geometry": { "type": "Point", "coordinates": [ -0.41798, 51.44967 ] } },
{ "type": "Feature", "properties": { "name": "Welling, Salvation Army", "slug": "welling", "address": "124 Welling High Street \nWelling \r\nDA16 1TJ", "url": "https://www.givefood.org.uk/needs/at/salvation-army/welling/", "network": "Independent", "email": "katy.shubotham@salvationarmy.org.uk", "telephone": "02083315701", "foodbank": "Salvation Army", "foodbank_slug": "salvation-army", "foodbank_url": "https://www.givefood.org.uk/needs/at/salvation-army/", "parliamentary_constituency": "Old Bexley and Sidcup" }, "geometry": { "type": "Point", "coordinates": [ 0.108608, 51.462182 ] } },
{ "type": "Feature", "properties": { "name": "Harrow, Salvation Army", "slug": "harrow", "address": "15-16 Roxeth Hill \nMiddlesex \r\nHA2 0JY", "url": "https://www.givefood.org.uk/needs/at/salvation-army/harrow/", "network": "Independent", "email": "harrow@salvationarmy.org.uk", "telephone": "02088645142", "foodbank": "Salvation Army", "foodbank_slug": "salvation-army", "foodbank_url": "https://www.givefood.org.uk/needs/at/salvation-army/", "parliamentary_constituency": "Harrow West" }, "geometry": { "type": "Point", "coordinates": [ -0.345465, 51.569274 ] } },
{ "type": "Feature", "properties": { "name": "Ealing, Salvation Army", "slug": "ealing", "address": "8 Leeland Rd \nEaling \r\nW13 9HH", "url": "https://www.givefood.org.uk/needs/at/salvation-army/ealing/", "network": "Independent", "email": "ealing@salvationarmy.org.uk", "telephone": "02088400348", "foodbank": "Salvation Army", "foodbank_slug": "salvation-army", "foodbank_url": "https://www.givefood.org.uk/needs/at/salvation-army/", "parliamentary_constituency": "Ealing Southall" }, "geometry": { "type": "Point", "coordinates": [ -0.323263, 51.509907 ] } },
{ "type": "Feature", "properties": { "name": "Hoxton, Salvation Army", "slug": "hoxton", "address": "66 New North Road \nHoxton \r\nN1 6TG", "url": "https://www.givefood.org.uk/needs/at/salvation-army/hoxton/", "network": "Independent", "email": "hoxton@salvationarmy.org.uk", "telephone": "02077393313%2F07900587681", "foodbank": "Salvation Army", "foodbank_slug": "salvation-army", "foodbank_url": "https://www.givefood.org.uk/needs/at/salvation-army/", "parliamentary_constituency": "Hackney South and Shoreditch" }, "geometry": { "type": "Point", "coordinates": [ -0.0868001, 51.5327743 ] } },
{ "type": "Feature", "properties": { "name": "Southwark, Salvation Army", "slug": "southwark", "address": "1 Princess Street \nSouthwark \r\nSE1 6HH", "url": "https://www.givefood.org.uk/needs/at/salvation-army/southwark/", "network": "Independent", "email": "southwark@salvationarmy.org.uk", "telephone": "02079287136", "foodbank": "Salvation Army", "foodbank_slug": "salvation-army", "foodbank_url": "https://www.givefood.org.uk/needs/at/salvation-army/", "parliamentary_constituency": "Bermondsey and Old Southwark" }, "geometry": { "type": "Point", "coordinates": [ -0.102449, 51.495958 ] } },
{ "type": "Feature", "properties": { "name": "Bexleyheath, Salvation Army", "slug": "bexleyheath", "address": "230 The Broadway \nBexleyheath \r\nDA6 8AS", "url": "https://www.givefood.org.uk/needs/at/salvation-army/bexleyheath/", "network": "Independent", "email": "bexleyheath@salvationarmy.org.uk", "telephone": "02083036796", "foodbank": "Salvation Army", "foodbank_slug": "salvation-army", "foodbank_url": "https://www.givefood.org.uk/needs/at/salvation-army/", "parliamentary_constituency": "Bexleyheath and Crayford" }, "geometry": { "type": "Point", "coordinates": [ 0.137386, 51.45782 ] } },
{ "type": "Feature", "properties": { "name": "Stratford, Salvation Army", "slug": "stratford", "address": "1 Paul Street \nStratford \r\nE15 4QB", "url": "https://www.givefood.org.uk/needs/at/salvation-army/stratford/", "network": "Independent", "email": "stratford@salvationarmy.org.uk", "telephone": "02085361048", "foodbank": "Salvation Army", "foodbank_slug": "salvation-army", "foodbank_url": "https://www.givefood.org.uk/needs/at/salvation-army/", "parliamentary_constituency": "West Ham and Beckton" }, "geometry": { "type": "Point", "coordinates": [ 0.002236, 51.5372575 ] } },
{ "type": "Feature", "properties": { "name": "Wandsworth, Salvation Army", "slug": "wandsworth", "address": "9 Ram Street \nWandsworth \r\nSW18 1TJ", "url": "https://www.givefood.org.uk/needs/at/salvation-army/wandsworth/", "network": "Independent", "email": "Wandsworthcorps@salvationarmy.org.uk", "telephone": "02088711812\"target=\"_blank\"rel=\"noopenernofollow", "foodbank": "Salvation Army", "foodbank_slug": "salvation-army", "foodbank_url": "https://www.givefood.org.uk/needs/at/salvation-army/", "parliamentary_constituency": "Putney" }, "geometry": { "type": "Point", "coordinates": [ -0.19185, 51.457966 ] } },
{ "type": "Feature", "properties": { "name": "All Saints Goodmayes, Redbridge Foodbank", "slug": "all-saints-goodmayes", "address": "51 Goodmayes Lane\r\nIlford\r\nIG3 9SJ", "url": "https://www.givefood.org.uk/needs/at/redbridge/all-saints-goodmayes/", "network": "Trussell", "email": "info@redbridgefoodbank.org", "telephone": "02085180056", "foodbank": "Redbridge", "foodbank_slug": "redbridge", "foodbank_url": "https://www.givefood.org.uk/needs/at/redbridge/", "parliamentary_constituency": "Ilford South" }, "geometry": { "type": "Point", "coordinates": [ 0.1099571, 51.5606005 ] } },
{ "type": "Feature", "properties": { "name": "New Testament Church of God, Redbridge Foodbank", "slug": "new-testament-church-of-god", "address": "73 Netley Road\r\nIlford\r\nIG2 7NP", "url": "https://www.givefood.org.uk/needs/at/redbridge/new-testament-church-of-god/", "network": "Trussell", "email": "info@redbridgefoodbank.org", "telephone": "02085548194", "foodbank": "Redbridge", "foodbank_slug": "redbridge", "foodbank_url": "https://www.givefood.org.uk/needs/at/redbridge/", "parliamentary_constituency": "Ilford North" }, "geometry": { "type": "Point", "coordinates": [ 0.0869482, 51.5784046 ] } },
{ "type": "Feature", "properties": { "name": "Strutton Ground, AY Group Foodbank", "slug": "strutton-ground", "address": "10 Strutton Ground\r\nLondon\r\nSW1P 2HP", "url": "https://www.givefood.org.uk/needs/at/ay-group/strutton-ground/", "network": "IFAN", "email": "office@ay-group.org", "telephone": "02073818502", "foodbank": "AY Group", "foodbank_slug": "ay-group", "foodbank_url": "https://www.givefood.org.uk/needs/at/ay-group/", "parliamentary_constituency": "Cities of London and Westminster" }, "geometry": { "type": "Point", "coordinates": [ -0.1340234, 51.4972651 ] } },
{ "type": "Feature", "properties": { "name": "Old Lodge Lane Baptist Church, Purley Foodbank", "slug": "old-lodge-lane-baptist-church", "address": "Reedham Park Avenue\r\nPurley\r\nCR8 4BQ", "url": "https://www.givefood.org.uk/needs/at/purley/old-lodge-lane-baptist-church/", "network": "IFAN", "email": "PurleyFoodHub@gmail.com", "telephone": "02086686260", "foodbank": "Purley", "foodbank_slug": "purley", "foodbank_url": "https://www.givefood.org.uk/needs/at/purley/", "parliamentary_constituency": "Croydon South" }, "geometry": { "type": "Point", "coordinates": [ -0.1145981, 51.317142 ] } },
{ "type": "Feature", "properties": { "name": "St Francis Church, Purley Foodbank", "slug": "st-francis-church", "address": "107 Broadcoombe\r\nSouth Croydon\r\nCR2 8HR", "url": "https://www.givefood.org.uk/needs/at/purley/st-francis-church/", "network": "IFAN", "email": "PurleyFoodHub@gmail.com", "telephone": "02086577864", "foodbank": "Purley", "foodbank_slug": "purley", "foodbank_url": "https://www.givefood.org.uk/needs/at/purley/", "parliamentary_constituency": "Croydon East" }, "geometry": { "type": "Point", "coordinates": [ -0.0556902, 51.3523486 ] } },
{ "type": "Feature", "properties": { "name": "Homerton, Hackney Foodbank", "slug": "homerton", "address": "Gilpin Road\r\nLower Clapton\r\nLondon\r\nE5 0HL", "url": "https://www.givefood.org.uk/needs/at/hackney/homerton/", "network": "Trussell", "email": "info@hackneyfoodbank.org", "telephone": "02072542464", "foodbank": "Hackney", "foodbank_slug": "hackney", "foodbank_url": "https://www.givefood.org.uk/needs/at/hackney/", "parliamentary_constituency": "Hackney North and Stoke Newington" }, "geometry": { "type": "Point", "coordinates": [ -0.0386839, 51.5553734 ] } }
]
}
